{
  "type": "FeatureCollection",
  "fonte": "Integrazioni disegnate a mano il 2026-10-09. Non sostituiscono Fiumi.json: la segmentazione le unisce in lettura.",
  "features": [
    {
      "type": "Feature",
      "properties": {
        "NOME": "Lisascora (Torrente)",
        "BACINO": "TICINO",
        "SOTTOBACIN": "Lago Maggiore (Verbano)",
        "NATURA": "naturale",
        "FONTE": "integrazione manuale 2026-10-09"
      },
      "geometry": {
        "type": "LineString",
        "coordinates": [
          [8.8141744, 45.9316543],
          [8.8155316, 45.9315407],
          [8.8162981, 45.9317592],
          [8.8169893, 45.9316368],
          [8.817781, 45.9322137],
          [8.8184219, 45.9323535],
          [8.8179584, 45.9334802],
          [8.8177418, 45.934513],
          [8.8179996, 45.9351656],
          [8.8180203, 45.9361194],
          [8.8184714, 45.9363988],
          [8.8183899, 45.9371002],
          [8.8179009, 45.937419],
          [8.8180497, 45.9388587],
          [8.8175754, 45.9393033],
          [8.8175032, 45.9396691],
          [8.811285, 45.9436771],
          [8.8112104, 45.9439693],
          [8.8106515, 45.9443638],
          [8.8084393, 45.945068],
          [8.8079993, 45.945068],
          [8.8073182, 45.9456294],
          [8.8062303, 45.9471478],
          [8.8057901, 45.9475329],
          [8.8056864, 45.9486416],
          [8.8053071, 45.9495483],
          [8.8051767, 45.9503891]
        ]
      }
    },
    {
      "type": "Feature",
      "properties": {
        "NOME": "Riale o Roggia di Rialto (Torrente)",
        "BACINO": "TICINO",
        "SOTTOBACIN": "Lago Maggiore (Verbano)",
        "NATURA": "naturale",
        "FONTE": "integrazione manuale 2026-10-09"
      },
      "geometry": {
        "type": "LineString",
        "coordinates": [
          [8.6209411, 45.912285],
          [8.6212837, 45.9123914],
          [8.6214795, 45.9125617],
          [8.6215652, 45.9127873],
          [8.6217181, 45.9128384],
          [8.6222504, 45.9128554],
          [8.6224766, 45.9129365],
          [8.6229393, 45.9132584],
          [8.6232588, 45.9133619],
          [8.6235377, 45.9138966],
          [8.6237164, 45.914126],
          [8.6239707, 45.9142172],
          [8.6242328, 45.9145626],
          [8.624344, 45.914593],
          [8.6246698, 45.9145847],
          [8.624928, 45.9145046],
          [8.625474, 45.9145415],
          [8.6260549, 45.9147133],
          [8.6264518, 45.915013],
          [8.6266551, 45.9151746],
          [8.6267955, 45.9152151],
          [8.6271809, 45.915282],
          [8.6275813, 45.9153359],
          [8.6276932, 45.9153599],
          [8.6289057, 45.9162551],
          [8.6292532, 45.9164163],
          [8.629679, 45.9165063],
          [8.6298085, 45.9165916],
          [8.6303412, 45.9167204],
          [8.6306677, 45.9168515],
          [8.6307922, 45.9168726],
          [8.6310782, 45.9168586],
          [8.6314358, 45.9167128],
          [8.6319495, 45.9167299],
          [8.6321855, 45.9168198],
          [8.6323147, 45.9170152],
          [8.6330205, 45.9174158],
          [8.6340007, 45.9175874],
          [8.6348649, 45.9176435],
          [8.6353454, 45.9178701],
          [8.6357444, 45.9179721],
          [8.6361353, 45.9181421],
          [8.6365913, 45.9181704],
          [8.6372428, 45.9183347],
          [8.6375257, 45.9183148],
          [8.6383266, 45.9184732],
          [8.6387365, 45.9186163],
          [8.638912, 45.9188855],
          [8.6392473, 45.9189106],
          [8.6398407, 45.9191583],
          [8.6402948, 45.9192696],
          [8.6404444, 45.9193737],
          [8.6403258, 45.919625],
          [8.6405911, 45.919995],
          [8.641025, 45.9203186],
          [8.6413205, 45.9207386],
          [8.6419041, 45.9212018],
          [8.6422642, 45.921351],
          [8.6422489, 45.921351]
        ]
      }
    },
    {
      "type": "Feature",
      "properties": {
        "NOME": "Brugo (Torrente)",
        "BACINO": "TICINO",
        "SOTTOBACIN": "Lago Maggiore (Verbano)",
        "NATURA": "naturale",
        "FONTE": "integrazione manuale 2026-10-09"
      },
      "geometry": {
        "type": "LineString",
        "coordinates": [
          [8.6313857, 45.9167255],
          [8.6314468, 45.9166394],
          [8.6316467, 45.9164101],
          [8.6317795, 45.916285],
          [8.6320837, 45.916183],
          [8.6324655, 45.9160843],
          [8.6327232, 45.9159498],
          [8.6329429, 45.9157336],
          [8.6332082, 45.915615],
          [8.6335758, 45.9155807],
          [8.634198, 45.9156072],
          [8.6350693, 45.915513],
          [8.6356107, 45.9156249],
          [8.6359829, 45.9157073],
          [8.6371758, 45.9156013],
          [8.6380809, 45.9156366],
          [8.6386224, 45.9157014],
          [8.6396101, 45.9157325],
          [8.6400423, 45.9156895],
          [8.6405424, 45.9155263],
          [8.6408327, 45.9155263],
          [8.6414069, 45.9153158],
          [8.6419486, 45.9152779],
          [8.6425061, 45.9152107]
        ]
      }
    },
    {
      "type": "Feature",
      "properties": {
        "NOME": "Roggia di Alserio (Torrente)",
        "BACINO": "LAMBRO - OLONA MERIDIONALE",
        "SOTTOBACIN": "Lambro (Asta)",
        "NATURA": "naturale",
        "FONTE": "integrazione manuale 2026-10-09"
      },
      "geometry": {
        "type": "LineString",
        "coordinates": [
          [9.2046827, 45.7809528],
          [9.2044996, 45.780753],
          [9.2043721, 45.7806074],
          [9.2039701, 45.7805346],
          [9.203429, 45.7803756],
          [9.2031353, 45.7803621],
          [9.2017679, 45.7800055],
          [9.2014432, 45.7800324],
          [9.2002683, 45.7805742],
          [9.1998141, 45.7807817],
          [9.1996157, 45.7819391],
          [9.1997165, 45.78244],
          [9.1992801, 45.7828319],
          [9.1990697, 45.7828849],
          [9.198653, 45.7827839],
          [9.1977833, 45.7828597],
          [9.1973666, 45.783125],
          [9.1968593, 45.783384],
          [9.1963882, 45.7831629],
          [9.1959172, 45.7832008],
          [9.1947576, 45.7837378],
          [9.1941235, 45.7836746],
          [9.193888, 45.7835735],
          [9.193498, 45.7837254],
          [9.1930813, 45.7836243],
          [9.1926102, 45.7839338],
          [9.1922841, 45.7844266],
          [9.1918674, 45.7845971],
          [9.1912242, 45.7853236],
          [9.1901643, 45.7856268],
          [9.189956, 45.7858163],
          [9.1899922, 45.7859995],
          [9.1899794, 45.7860461]
        ]
      }
    },
    {
      "type": "Feature",
      "properties": {
        "NOME": "Trallo (Torrente)",
        "BACINO": "TICINO",
        "SOTTOBACIN": "Lago di Lugano (Ceresio)",
        "NATURA": "naturale",
        "FONTE": "integrazione manuale 2026-10-09"
      },
      "geometry": {
        "type": "LineString",
        "coordinates": [
          [8.8918195, 45.9486266],
          [8.8914584, 45.9483553],
          [8.8914179, 45.9482951],
          [8.8910019, 45.9480198],
          [8.8907242, 45.9475807],
          [8.8907849, 45.9472733],
          [8.8905018, 45.946986],
          [8.8904333, 45.9466784],
          [8.8896157, 45.9461621],
          [8.8893538, 45.9458293],
          [8.8891891, 45.9457268],
          [8.8882877, 45.9454616],
          [8.8877498, 45.9453824],
          [8.8875764, 45.9453],
          [8.8873106, 45.9450489],
          [8.8870679, 45.9449705],
          [8.8867067, 45.9449163],
          [8.8864146, 45.9447776],
          [8.8861343, 45.9447294],
          [8.8850191, 45.9445988],
          [8.8848081, 45.9445647],
          [8.8839647, 45.9441102],
          [8.8835688, 45.9438349],
          [8.88106, 45.9425744],
          [8.8800765, 45.9422923],
          [8.8795553, 45.9420688],
          [8.8789211, 45.9417577],
          [8.8781513, 45.9414374],
          [8.8778559, 45.9412229],
          [8.8777082, 45.9411051],
          [8.8770741, 45.9408937],
          [8.8766702, 45.9406702],
          [8.875858, 45.940489],
          [8.8754695, 45.94041],
          [8.8751785, 45.9404402],
          [8.8749136, 45.9405459],
          [8.874666, 45.9405973],
          [8.8744184, 45.9405671],
          [8.8742317, 45.9404402],
          [8.8739363, 45.9403375],
          [8.873363, 45.9403708],
          [8.8730927, 45.9403164],
          [8.8726453, 45.9400868],
          [8.8721067, 45.9398875],
          [8.871655, 45.9397093],
          [8.8713241, 45.9393853],
          [8.8710514, 45.9387192],
          [8.8711283, 45.9381794],
          [8.8712662, 45.9378498],
          [8.8711264, 45.9374803],
          [8.8706509, 45.9372566],
          [8.8703363, 45.9368725],
          [8.8700287, 45.9361285],
          [8.8695672, 45.9354526]
        ]
      }
    },
    {
      "type": "Feature",
      "properties": {
        "NOME": "Tinella (Torrente)",
        "BACINO": "TICINO",
        "SOTTOBACIN": "Lago Maggiore (Verbano)",
        "NATURA": "naturale",
        "FONTE": "integrazione manuale 2026-10-09"
      },
      "geometry": {
        "type": "LineString",
        "coordinates": [
          [8.736724, 45.8245358],
          [8.7369539, 45.8245382],
          [8.7371906, 45.8246207],
          [8.7374915, 45.8247714],
          [8.7377138, 45.8249447],
          [8.7379065, 45.8253075],
          [8.7380857, 45.8253758],
          [8.7383156, 45.8252509],
          [8.7384576, 45.8250365],
          [8.7386706, 45.8249352],
          [8.7388227, 45.8248716],
          [8.7389782, 45.8249541],
          [8.7391101, 45.8250907],
          [8.7392622, 45.8252109],
          [8.7394684, 45.8252274],
          [8.7396239, 45.8251237],
          [8.7398099, 45.8248787],
          [8.7400114, 45.8247537],
          [8.740194, 45.8246665],
          [8.7403157, 45.824445],
          [8.7405016, 45.8243508],
          [8.7407349, 45.8242354],
          [8.7410493, 45.8241506],
          [8.7413536, 45.8240728],
          [8.7417897, 45.8241576],
          [8.7422021, 45.8240068],
          [8.7426416, 45.8238113],
          [8.7428715, 45.8237807],
          [8.7436221, 45.8239691],
          [8.7441208, 45.8240325],
          [8.74454, 45.8239642],
          [8.7449321, 45.8238605],
          [8.7453108, 45.8238087],
          [8.74573, 45.8238676],
          [8.746325, 45.8241951],
          [8.7464197, 45.8243364],
          [8.7463892, 45.8245131],
          [8.7461526, 45.824777],
          [8.746132, 45.8252073],
          [8.7462943, 45.8252026],
          [8.7464667, 45.825066],
          [8.7467135, 45.8249906],
          [8.746957, 45.8249647],
          [8.7475493, 45.8251752],
          [8.7478806, 45.8251563],
          [8.748195, 45.8251328],
          [8.7487901, 45.8254273],
          [8.7490571, 45.8256181],
          [8.7492823, 45.8259889],
          [8.7492011, 45.8262787],
          [8.7493938, 45.8264318],
          [8.7498199, 45.8268084],
          [8.7500705, 45.8273129],
          [8.7502307, 45.827934],
          [8.7504396, 45.8284337],
          [8.7508282, 45.8287784],
          [8.7509256, 45.8292151],
          [8.7512181, 45.8295013],
          [8.7520954, 45.8296663],
          [8.7525271, 45.8297391],
          [8.7532164, 45.829676],
          [8.7537595, 45.8297779],
          [8.7543026, 45.8299089],
          [8.7548693, 45.8304196],
          [8.7556282, 45.8305749],
          [8.7561713, 45.8305506],
          [8.7566517, 45.8301867],
          [8.7569442, 45.8302547],
          [8.7572018, 45.8304875],
          [8.7573828, 45.8305409],
          [8.7577157, 45.8303786],
          [8.7582493, 45.8304594],
          [8.7587365, 45.8308689],
          [8.7594866, 45.8310467],
          [8.7598269, 45.8310144],
          [8.7600666, 45.8306857],
          [8.7602213, 45.8307127],
          [8.7604378, 45.8309013],
          [8.7607626, 45.8309336],
          [8.7614199, 45.8305887],
          [8.7617989, 45.8307558],
          [8.7621701, 45.8307827],
          [8.7625954, 45.8307504],
          [8.763098, 45.8307935],
          [8.7652827, 45.8304621],
          [8.766172, 45.8306615],
          [8.7665587, 45.8304028],
          [8.7669454, 45.8300687],
          [8.7674094, 45.8299125],
          [8.7676955, 45.8297077],
          [8.7681982, 45.8297077],
          [8.7685848, 45.8299071],
          [8.768871, 45.8298478],
          [8.7691115, 45.829645],
          [8.7697997, 45.8296073],
          [8.7703101, 45.8293648],
          [8.7707664, 45.8290577],
          [8.7714933, 45.8289445],
          [8.7719186, 45.8288745],
          [8.7731482, 45.8287829],
          [8.7735736, 45.8288852],
          [8.7740376, 45.8289337],
          [8.7746949, 45.828923],
          [8.7752904, 45.8290954],
          [8.7756538, 45.8293325],
          [8.7763808, 45.8295211],
          [8.7770343, 45.8304176],
          [8.77739, 45.8306493],
          [8.7775215, 45.8311181],
          [8.7774828, 45.8316408],
          [8.7767528, 45.8326237],
          [8.7764048, 45.8336475],
          [8.776312, 45.8342501],
          [8.7756547, 45.8350907],
          [8.7756392, 45.8357049],
          [8.775384, 45.8358557],
          [8.7750051, 45.8358288],
          [8.7745411, 45.8359635],
          [8.7745099, 45.8361983],
          [8.7733732, 45.8362953],
          [8.7730252, 45.836694],
          [8.7729788, 45.8370442],
          [8.7725612, 45.8374651],
          [8.7721833, 45.8378181],
          [8.7717796, 45.8379378],
          [8.7715906, 45.8381293],
          [8.7715906, 45.8384644],
          [8.7710323, 45.8391525],
          [8.7706287, 45.8392303],
          [8.770225, 45.8392064],
          [8.7697612, 45.839344],
          [8.7696152, 45.8399902],
          [8.7695121, 45.840062],
          [8.7696409, 45.8403253],
          [8.7696323, 45.8407741],
          [8.7696667, 45.8416118],
          [8.7699845, 45.8422041],
          [8.7700017, 45.8425153],
          [8.7697354, 45.8429162],
          [8.7696581, 45.8430418],
          [8.7696323, 45.8431914],
          [8.7697869, 45.8433769],
          [8.7698213, 45.8435384],
          [8.7697526, 45.8437419],
          [8.7693764, 45.8440922],
          [8.7690414, 45.8442897],
          [8.7687065, 45.8444811],
          [8.7679491, 45.8455793]
        ]
      }
    },
    {
      "type": "Feature",
      "properties": {
        "NOME": "Tarca (Torrente)",
        "BACINO": "TICINO",
        "SOTTOBACIN": "Lago Maggiore (Verbano)",
        "NATURA": "naturale",
        "FONTE": "integrazione manuale 2026-10-09"
      },
      "geometry": {
        "type": "LineString",
        "coordinates": [
          [8.8487279, 45.9732993],
          [8.8480723, 45.9727917],
          [8.847503, 45.97248],
          [8.847365, 45.9722842],
          [8.8470303, 45.9717109],
          [8.8476341, 45.9701162],
          [8.8477548, 45.9696766],
          [8.847358, 45.9688493],
          [8.8471453, 45.9683697],
          [8.8467658, 45.9678981],
          [8.8466508, 45.9676063],
          [8.8465703, 45.9673665],
          [8.846668, 45.9671786],
          [8.8467658, 45.9669069],
          [8.8467198, 45.966707],
          [8.8466623, 45.9666071],
          [8.8467888, 45.9665072],
          [8.8469268, 45.9663833],
          [8.8467658, 45.9662394],
          [8.8466373, 45.9661587],
          [8.8463377, 45.9661116],
          [8.8457668, 45.9660409],
          [8.8454644, 45.9659544],
          [8.8451649, 45.9658091],
          [8.8447014, 45.9655576],
          [8.8444187, 45.9654201],
          [8.8438337, 45.9649211],
          [8.8438592, 45.9647227],
          [8.8437885, 45.9646206],
          [8.8437376, 45.9644241],
          [8.8431978, 45.9638736],
          [8.8427117, 45.9636791],
          [8.8423019, 45.9635259],
          [8.841991, 45.963518],
          [8.841748, 45.9635573],
          [8.8412506, 45.9637931],
          [8.8406862, 45.9639485],
          [8.8404997, 45.9640467],
          [8.8403019, 45.9641135],
          [8.840104, 45.9640939],
          [8.8397225, 45.9641607],
          [8.8390894, 45.9639878],
          [8.8389283, 45.9640821],
          [8.8386627, 45.9642471],
          [8.8383095, 45.9644946],
          [8.8381569, 45.96453],
          [8.8379421, 45.964532],
          [8.83762, 45.9645536],
          [8.837521, 45.9646106],
          [8.8375013, 45.9648522],
          [8.8374278, 45.9649072],
          [8.8372441, 45.9648915],
          [8.8366364, 45.9646891],
          [8.8362153, 45.9645614],
          [8.835619, 45.9645457],
          [8.8351855, 45.964457],
          [8.8349311, 45.964459],
          [8.8345948, 45.9645925],
          [8.834332, 45.9647399],
          [8.8339335, 45.9648754],
          [8.8334587, 45.9649304],
          [8.8328652, 45.9649461],
          [8.8326532, 45.9649736],
          [8.8321301, 45.965026],
          [8.8317373, 45.9651262],
          [8.8313671, 45.9652578],
          [8.8311042, 45.9653148],
          [8.8309403, 45.9653285],
          [8.830545, 45.9653016],
          [8.8302878, 45.9653527],
          [8.829748, 45.9655786],
          [8.8294767, 45.9656316],
          [8.8290556, 45.965663],
          [8.8284847, 45.9656473],
          [8.8283405, 45.9656748],
          [8.8275972, 45.9656139],
          [8.8271309, 45.965667],
          [8.8265346, 45.9656827],
          [8.8260994, 45.9656434],
          [8.8249858, 45.9654568],
          [8.8240701, 45.9653053],
          [8.8237791, 45.9652268],
          [8.8234456, 45.965105],
          [8.8226655, 45.9647612]
        ]
      }
    },
    {
      "type": "Feature",
      "properties": {
        "NOME": "Brinzio (Lago)",
        "BACINO": "TICINO",
        "SOTTOBACIN": "Lago Maggiore (Verbano)",
        "NATURA": "naturale",
        "FONTE": "integrazione manuale 2026-10-09"
      },
      "geometry": {
        "type": "Polygon",
        "coordinates": [
          [
            [8.7933925, 45.8867049],
            [8.7931137, 45.8865756],
            [8.7932151, 45.8864697],
            [8.7929278, 45.886405],
            [8.7925223, 45.8866285],
            [8.7925054, 45.8865226],
            [8.7933249, 45.8856228],
            [8.7936376, 45.8857874],
            [8.7938572, 45.8854816],
            [8.7942713, 45.8854169],
            [8.7946684, 45.885064],
            [8.7944994, 45.8841994],
            [8.7940178, 45.88417],
            [8.7940009, 45.8840935],
            [8.7942544, 45.8840288],
            [8.7944318, 45.8837994],
            [8.7951753, 45.8837465],
            [8.7955218, 45.8835583],
            [8.7959949, 45.8836053],
            [8.7959696, 45.8836583],
            [8.7950655, 45.8839112],
            [8.7948205, 45.8838465],
            [8.7947191, 45.8841935],
            [8.7949134, 45.8841935],
            [8.7955049, 45.8839994],
            [8.7956823, 45.8841523],
            [8.7958682, 45.8840759],
            [8.7954626, 45.8846288],
            [8.7951669, 45.8848876],
            [8.7949726, 45.8852757],
            [8.7951331, 45.8852993],
            [8.7937158, 45.8864232],
            [8.7936688, 45.8866482],
            [8.7933925, 45.8867049]
          ]
        ]
      }
    },
    {
      "type": "Feature",
      "properties": {
        "NOME": "Rio Brivola (Torrente)",
        "BACINO": "TICINO",
        "SOTTOBACIN": "Lago Maggiore (Verbano)",
        "NATURA": "naturale",
        "FONTE": "integrazione manuale 2026-10-09"
      },
      "geometry": {
        "type": "LineString",
        "coordinates": [
          [8.7931268, 45.8865762],
          [8.7928336, 45.8867232],
          [8.7916687, 45.8871912],
          [8.7912855, 45.8873545],
          [8.7906317, 45.8874917],
          [8.790319, 45.8874917],
          [8.7901313, 45.8875298],
          [8.7900023, 45.8875978],
          [8.7892126, 45.8876722],
          [8.7885323, 45.8878736],
          [8.7883994, 45.8879715],
          [8.7879889, 45.8880504],
          [8.7878042, 45.8882109],
          [8.787597, 45.8882599],
          [8.7872178, 45.8885973],
          [8.787124, 45.8887415],
          [8.7867721, 45.8888395],
          [8.786438, 45.8888441],
          [8.7861995, 45.8890182],
          [8.785879, 45.8890155],
          [8.7857382, 45.888972],
          [8.7856092, 45.8889447],
          [8.7853903, 45.8889828],
          [8.7849642, 45.8889012],
          [8.7849251, 45.8888141],
          [8.7847805, 45.8888549],
          [8.7847296, 45.8889856],
          [8.7844951, 45.8892277],
          [8.7843192, 45.8894753],
          [8.7841902, 45.8896821],
          [8.7839869, 45.8897991]
        ]
      }
    },
    {
      "type": "Feature",
      "properties": {
        "NOME": "Rio Valmolina (Torrente)",
        "BACINO": "TICINO",
        "SOTTOBACIN": "Lago Maggiore (Verbano)",
        "NATURA": "naturale",
        "FONTE": "integrazione manuale 2026-10-09"
      },
      "geometry": {
        "type": "LineString",
        "coordinates": [
          [8.7839847, 45.8898035],
          [8.784125, 45.8898547],
          [8.784291, 45.88985],
          [8.7843527, 45.889931],
          [8.7843475, 45.8900263],
          [8.784416, 45.8900835],
          [8.7844725, 45.8900954],
          [8.7846693, 45.8900537],
          [8.7848063, 45.8900513],
          [8.7849848, 45.8899941],
          [8.7852193, 45.8900048],
          [8.785274, 45.8900001],
          [8.7853511, 45.8900287],
          [8.7854093, 45.890099],
          [8.7854452, 45.890118],
          [8.785706, 45.890041],
          [8.7858925, 45.8900183],
          [8.7861767, 45.890041],
          [8.7864009, 45.8900338],
          [8.7866458, 45.8900714],
          [8.7867348, 45.8900797],
          [8.7869077, 45.8900237],
          [8.7870035, 45.8899809],
          [8.7870481, 45.8899058],
          [8.7871576, 45.8898581],
          [8.787387, 45.8898045],
          [8.7875205, 45.8897938],
          [8.7876643, 45.8898319],
          [8.7878115, 45.8898844],
          [8.7881401, 45.8900666],
          [8.7883318, 45.8901071],
          [8.7884414, 45.8900905],
          [8.7885098, 45.8898617],
          [8.7885629, 45.889714],
          [8.7886348, 45.8896461],
          [8.7890045, 45.8896282],
          [8.7892227, 45.8896604],
          [8.7895103, 45.8898986],
          [8.7896729, 45.8899654],
          [8.7898286, 45.8900011],
          [8.7900152, 45.8899916],
          [8.7900842, 45.8899747],
          [8.7902853, 45.8898039],
          [8.7906119, 45.8897278],
          [8.7908458, 45.8897129],
          [8.7910712, 45.889749],
          [8.7911711, 45.8897947],
          [8.7916719, 45.8898731],
          [8.7921724, 45.8898572],
          [8.7922748, 45.889896],
          [8.7924201, 45.890067],
          [8.7925276, 45.8903578],
          [8.7926111, 45.8904431],
          [8.7926705, 45.8904581],
          [8.7929855, 45.8904942],
          [8.7930854, 45.8905373],
          [8.7931398, 45.8906474],
          [8.7932479, 45.8911093],
          [8.7933288, 45.8912158],
          [8.7934502, 45.8912686],
          [8.7937575, 45.8913734],
          [8.7938878, 45.8914297],
          [8.7940005, 45.8914984],
          [8.7941839, 45.8916014],
          [8.7944381, 45.8916806],
          [8.7947568, 45.8917466],
          [8.795169, 45.8917361],
          [8.795298, 45.8917563],
          [8.7954792, 45.8918047],
          [8.7956815, 45.891891],
          [8.7957979, 45.8919218],
          [8.7959939, 45.8919218],
          [8.7962215, 45.8918787],
          [8.7963455, 45.891876],
          [8.7968943, 45.8918927],
          [8.7972206, 45.891964],
          [8.7974938, 45.8920521],
          [8.797665, 45.8921357],
          [8.7980457, 45.8924024],
          [8.7983783, 45.8926365],
          [8.7986274, 45.8927677],
          [8.7987994, 45.892817],
          [8.7990776, 45.8928231],
          [8.7993985, 45.8928079],
          [8.799941, 45.8927031],
          [8.8005961, 45.8924162],
          [8.8008229, 45.8923077],
          [8.8009582, 45.8921704],
          [8.8013262, 45.8921467],
          [8.8015994, 45.8920903],
          [8.8022241, 45.8918403],
          [8.8030622, 45.8915704],
          [8.8033674, 45.8914761],
          [8.8036355, 45.8914444],
          [8.8039541, 45.8914312],
          [8.8042223, 45.8913819],
          [8.804852, 45.8911575],
          [8.8050177, 45.8910888],
          [8.8054018, 45.8909299],
          [8.8059288, 45.8907387],
          [8.8063512, 45.8905423],
          [8.8067888, 45.8902914],
          [8.8075694, 45.8898464],
          [8.808031, 45.8895965],
          [8.8083842, 45.8894178],
          [8.8087282, 45.8891546],
          [8.8089583, 45.8890067],
          [8.8090949, 45.8889389],
          [8.8092707, 45.8888544],
          [8.8096387, 45.8887373],
          [8.8099814, 45.8887197],
          [8.8105328, 45.888754],
          [8.811026, 45.8888024],
          [8.8120807, 45.8891589],
          [8.8125962, 45.8893719],
          [8.8132399, 45.8895479],
          [8.8135722, 45.8896467]
        ]
      }
    },
    {
      "type": "Feature",
      "properties": {
        "NOME": "Rio Viganella (Torrente)",
        "BACINO": "TICINO",
        "SOTTOBACIN": "Lago Maggiore (Verbano)",
        "NATURA": "naturale",
        "FONTE": "integrazione manuale 2026-10-09"
      },
      "geometry": {
        "type": "LineString",
        "coordinates": [
          [8.6371076, 45.8650723],
          [8.6372771, 45.865129],
          [8.6374974, 45.8654334],
          [8.6377824, 45.8660486],
          [8.637996, 45.8661265],
          [8.6379688, 45.8663507],
          [8.6377272, 45.8665641],
          [8.6380051, 45.8666136],
          [8.6382932, 45.8669204],
          [8.6384999, 45.8670715],
          [8.6387781, 45.8674421],
          [8.6389578, 45.8676356],
          [8.6391984, 45.8677159],
          [8.6394526, 45.8677442],
          [8.6396898, 45.8676451],
          [8.6398788, 45.8676144],
          [8.6401059, 45.8676191],
          [8.6404889, 45.8677182],
          [8.6407126, 45.8678693],
          [8.6410007, 45.8682751],
          [8.6410892, 45.8686149],
          [8.6413061, 45.8688816],
          [8.6414282, 45.8689854],
          [8.6421597, 45.8697905],
          [8.6421699, 45.8699132],
          [8.6421224, 45.8702506],
          [8.642119, 45.8704701],
          [8.6421631, 45.8706589],
          [8.6422953, 45.870784],
          [8.642641, 45.8710082],
          [8.6430341, 45.8711167],
          [8.6433053, 45.8710978],
          [8.6438882, 45.8709114],
          [8.644156, 45.8708335],
          [8.6444271, 45.8707934],
          [8.6446406, 45.8708382],
          [8.6447389, 45.8709492],
          [8.6448779, 45.8712017],
          [8.6448982, 45.8714707],
          [8.644844, 45.8716996],
          [8.6448406, 45.8718978],
          [8.6449863, 45.8721267],
          [8.6450948, 45.8722117],
          [8.6458642, 45.8724264],
          [8.6461726, 45.8725515],
          [8.6463488, 45.8725774],
          [8.6467557, 45.8725208],
          [8.6470608, 45.8724099],
          [8.6472709, 45.8722305],
          [8.6478199, 45.8720205],
          [8.6480165, 45.8719804],
          [8.6483283, 45.8719851],
          [8.6495605, 45.8724005],
          [8.6520889, 45.8731391],
          [8.6525769, 45.8730942],
          [8.652821, 45.8731933],
          [8.6529294, 45.8733137],
          [8.6530006, 45.8735473],
          [8.6527227, 45.8737432],
          [8.6523431, 45.8740664],
          [8.6522245, 45.8741844],
          [8.6524617, 45.8745832],
          [8.6526007, 45.8748853],
          [8.652682, 45.8750221],
          [8.6529972, 45.8754421],
          [8.6531972, 45.8757631],
          [8.6537157, 45.876117],
          [8.6545935, 45.8762444],
          [8.6551189, 45.8764143],
          [8.6557256, 45.8763223],
          [8.6561424, 45.8761972],
          [8.656417, 45.8760981],
          [8.656783, 45.8760391],
          [8.6573219, 45.8760792],
          [8.6574405, 45.8760321],
          [8.6576913, 45.8760745],
          [8.6577422, 45.8759872],
          [8.6577544, 45.8756883],
          [8.6578108, 45.8755957],
          [8.6579213, 45.8755753],
          [8.6581557, 45.8755988],
          [8.6583992, 45.8756004],
          [8.6587307, 45.8756475],
          [8.6591703, 45.8758484],
          [8.6597227, 45.8757181],
          [8.6604884, 45.8754195],
          [8.6606394, 45.8753253],
          [8.6608085, 45.8752656],
          [8.6614009, 45.8752224],
          [8.6618991, 45.8755033],
          [8.6622937, 45.8757576],
          [8.6624741, 45.8757922],
          [8.6626995, 45.8758157],
          [8.6632023, 45.875811],
          [8.6633466, 45.8757702],
          [8.6635112, 45.8756823],
          [8.6638155, 45.8754971],
          [8.6642439, 45.8753997],
          [8.6646048, 45.8753621],
          [8.6653736, 45.8752585],
          [8.6655652, 45.8752694],
          [8.6660675, 45.875341],
          [8.6662547, 45.8753473],
          [8.6663448, 45.8753771],
          [8.6664237, 45.8753305],
          [8.6664845, 45.8751971],
          [8.6667032, 45.8749711],
          [8.6673334, 45.8744613],
          [8.6675186, 45.8740061],
          [8.6676494, 45.8739354],
          [8.6678252, 45.8738946],
          [8.6682762, 45.8739119],
          [8.6686842, 45.873948],
          [8.6688376, 45.8740171],
          [8.669284, 45.874061],
          [8.6702074, 45.8743731],
          [8.6702209, 45.8744798],
          [8.6704081, 45.8746305],
          [8.6706155, 45.8746572],
          [8.6708297, 45.8746399],
          [8.6709604, 45.8745913],
          [8.6711025, 45.8745112],
          [8.6712039, 45.8744139],
          [8.6716402, 45.8743567],
          [8.6718702, 45.8742861],
          [8.6722963, 45.8740805],
          [8.6724451, 45.8738466],
          [8.6727562, 45.8736158],
          [8.6736107, 45.8731637],
          [8.6739196, 45.8730915],
          [8.6748953, 45.8731503],
          [8.6759144, 45.8734282],
          [8.6766764, 45.8736181],
          [8.6772806, 45.8737421],
          [8.6777361, 45.8737437],
          [8.6780562, 45.8738175],
          [8.6783155, 45.8739776],
          [8.6785274, 45.8741879],
          [8.6786245, 45.8743265],
          [8.6786358, 45.8745054],
          [8.6784558, 45.8749733],
          [8.6783318, 45.8751381],
          [8.678271, 45.8752951],
          [8.6782867, 45.8754332],
          [8.6783792, 45.8755541],
          [8.6784964, 45.8756059],
          [8.6787354, 45.8756483],
          [8.6790759, 45.8756749],
          [8.6794794, 45.875879],
          [8.6800882, 45.8761757],
          [8.6803655, 45.8762416],
          [8.6806158, 45.8763546],
          [8.6810857, 45.8766513],
          [8.6813066, 45.8767407],
          [8.6817305, 45.8768491],
          [8.6821814, 45.8769197],
          [8.6830291, 45.87713],
          [8.6835161, 45.8771975],
          [8.6837567, 45.8771693],
          [8.683919, 45.8770939],
          [8.6842415, 45.8770186],
          [8.6846788, 45.8769417],
          [8.6849014, 45.8769409],
          [8.6850975, 45.8769723],
          [8.685562, 45.8771136],
          [8.6858799, 45.8772266],
          [8.6861504, 45.8772894],
          [8.6863601, 45.8773161],
          [8.6877107, 45.8780418],
          [8.6879362, 45.8782129],
          [8.6885184, 45.8783932],
          [8.688922, 45.8786161],
          [8.6894195, 45.8788349],
          [8.6898479, 45.879017],
          [8.6909183, 45.8796132],
          [8.6910197, 45.8797231],
          [8.6911031, 45.8798596],
          [8.6912768, 45.8799177],
          [8.6914594, 45.8799569],
          [8.6920659, 45.8801108],
          [8.6924965, 45.8802206],
          [8.6929519, 45.8802834],
          [8.6936554, 45.8802771],
          [8.6939575, 45.8803054],
          [8.6949698, 45.8806287],
          [8.6957566, 45.8807465],
          [8.6963406, 45.8809301],
          [8.6966269, 45.8809787],
          [8.6974183, 45.8808249],
          [8.6977136, 45.880748],
          [8.6980466, 45.8807308],
          [8.6985561, 45.8807449],
          [8.6988447, 45.8808909],
          [8.6991671, 45.8811812],
          [8.6996549, 45.8817166],
          [8.7001504, 45.8823556],
          [8.7004863, 45.8826977],
          [8.7007298, 45.8827354],
          [8.7010364, 45.8827118],
          [8.70121, 45.8827401],
          [8.7013994, 45.8828311],
          [8.7017602, 45.8831026],
          [8.7021415, 45.8834319],
          [8.702473, 45.8834131],
          [8.7026533, 45.8834602],
          [8.702969, 45.8834633],
          [8.7032373, 45.8836595],
          [8.7033004, 45.8837741],
          [8.7041046, 45.8840416],
          [8.7044901, 45.8842111],
          [8.7051485, 45.884412],
          [8.7055265, 45.8844701],
          [8.706514, 45.8843932],
          [8.7083952, 45.884178],
          [8.7093647, 45.8841173],
          [8.709718, 45.8840364],
          [8.7100521, 45.8838004],
          [8.7104944, 45.8836738],
          [8.7113998, 45.8835917],
          [8.7122746, 45.883383],
          [8.7127365, 45.8831607],
          [8.712879, 45.8830375],
          [8.7130756, 45.8826988],
          [8.713572, 45.8825004],
          [8.7143321, 45.8820961],
          [8.7148816, 45.8815417],
          [8.7152037, 45.8810999],
          [8.715261, 45.8807776],
          [8.7152873, 45.8805417]
        ]
      }
    },
    {
      "type": "Feature",
      "properties": {
        "NOME": "Gaggiola o Lanza (Torrente)",
        "BACINO": "LAMBRO - OLONA MERIDIONALE",
        "SOTTOBACIN": "Olona",
        "NATURA": "naturale",
        "FONTE": "integrazione manuale 2026-10-09"
      },
      "geometry": {
        "type": "LineString",
        "coordinates": [
          [8.9464467, 45.8916441],
          [8.9469125, 45.8912813],
          [8.9469569, 45.8911076],
          [8.9469236, 45.8909918],
          [8.947223, 45.8907062],
          [8.9472286, 45.8902914],
          [8.9471842, 45.8895425],
          [8.947512, 45.8892081],
          [8.9483039, 45.8891385],
          [8.9485874, 45.8892603],
          [8.9487791, 45.8892313],
          [8.9493293, 45.8887091],
          [8.9495794, 45.8884248],
          [8.9496128, 45.8879722],
          [8.9498908, 45.8877332],
          [8.9499325, 45.8873154],
          [8.9502076, 45.8869208],
          [8.9501326, 45.8866887],
          [8.9498242, 45.8865494],
          [8.9497739, 45.8863116],
          [8.9499367, 45.8860953],
          [8.9499318, 45.8857245],
          [8.9505977, 45.885491],
          [8.9506865, 45.8852266],
          [8.9509972, 45.8847597],
          [8.9507474, 45.884516],
          [8.9508066, 45.8842448],
          [8.9509398, 45.8839426],
          [8.9512752, 45.8834619],
          [8.9514972, 45.8832799],
          [8.9516353, 45.8828335],
          [8.9513788, 45.8825451],
          [8.9510236, 45.8820746],
          [8.9507869, 45.8813535],
          [8.950553, 45.8801593],
          [8.9503256, 45.8792335],
          [8.9495807, 45.8788695],
          [8.9487027, 45.8782891],
          [8.948831, 45.8777397],
          [8.9487471, 45.8774134],
          [8.9484338, 45.8772363],
          [8.947689, 45.877092],
          [8.9471365, 45.8768036],
          [8.946298, 45.8760824],
          [8.9459823, 45.87566],
          [8.9452424, 45.8753372],
          [8.9435505, 45.8749216],
          [8.9434025, 45.8750727],
          [8.9430868, 45.875035],
          [8.9429241, 45.8749148],
          [8.9428698, 45.8743172],
          [8.9425886, 45.8741627],
          [8.9412568, 45.8738673],
          [8.9409904, 45.8737093],
          [8.9407537, 45.8733659],
          [8.9403492, 45.8730602],
          [8.9392492, 45.8725726],
          [8.9381098, 45.8722223],
          [8.9377694, 45.8717346],
          [8.936778, 45.8712194],
          [8.9363987, 45.8712059],
          [8.9358709, 45.8714085],
          [8.9355058, 45.8717451],
          [8.9345292, 45.8719409],
          [8.934073, 45.8716652],
          [8.9339765, 45.8713784],
          [8.9341181, 45.8711543],
          [8.9338284, 45.8707689],
          [8.9337576, 45.8702579],
          [8.9335001, 45.8697022],
          [8.9333263, 45.8696394],
          [8.9330431, 45.8697694],
          [8.932805, 45.8697739],
          [8.9323336, 45.8690626],
          [8.9321856, 45.8685157],
          [8.9323266, 45.8680462],
          [8.9320563, 45.867468],
          [8.9317344, 45.8671498],
          [8.9313933, 45.8659351],
          [8.9311294, 45.8656841],
          [8.9302539, 45.8657693],
          [8.9299257, 45.8658993],
          [8.9292626, 45.8663654],
          [8.9289666, 45.8662937],
          [8.9287413, 45.866101],
          [8.9287284, 45.86585],
          [8.927956, 45.8650745],
          [8.9276341, 45.8650162],
          [8.9271449, 45.8651328],
          [8.9267844, 45.8653434],
          [8.9262309, 45.8653434],
          [8.925658, 45.8655765],
          [8.9252267, 45.8655765],
          [8.9249499, 45.8652717],
          [8.924892, 45.864949],
          [8.9247439, 45.8644963],
          [8.9242032, 45.8641915],
          [8.9237269, 45.8641332],
          [8.9231669, 45.8643528],
          [8.9227228, 45.8647383],
          [8.9224717, 45.8647966],
          [8.9220022, 45.8646564],
          [8.9218992, 45.8644547],
          [8.922028, 45.8640872],
          [8.9218155, 45.8639617],
          [8.9211783, 45.8637868],
          [8.9207683, 45.8637049],
          [8.9205246, 45.8635908],
          [8.9203836, 45.8634503],
          [8.9203075, 45.8630949],
          [8.9203722, 45.8624212],
          [8.9204179, 45.8621878],
          [8.9205855, 45.8619172],
          [8.9205855, 45.8616679],
          [8.9204941, 45.8615432],
          [8.9201361, 45.8614557],
          [8.9197628, 45.8615539],
          [8.9196143, 45.8615698],
          [8.919161, 45.8614849],
          [8.9187192, 45.8612197],
          [8.9185669, 45.8610154],
          [8.9185288, 45.8608457],
          [8.9187459, 45.8605862],
          [8.9190696, 45.8601671],
          [8.9191496, 45.859809],
          [8.9190544, 45.8593236],
          [8.9189896, 45.8589417],
          [8.9188106, 45.858565],
          [8.9183231, 45.8582308],
          [8.9178623, 45.858122],
          [8.91747, 45.8580876],
          [8.9168758, 45.8583926],
          [8.9166701, 45.8585756],
          [8.9165929, 45.8588968],
          [8.9161587, 45.8591568],
          [8.9153589, 45.8592974],
          [8.9146722, 45.8591242],
          [8.9142913, 45.8589279],
          [8.9141352, 45.8586255],
          [8.9140133, 45.8580844],
          [8.9138229, 45.8576547],
          [8.9139029, 45.8574928],
          [8.9140285, 45.8572886],
          [8.9146989, 45.8569411],
          [8.9149563, 45.8567307],
          [8.9150667, 45.8563832],
          [8.9151696, 45.8561816],
          [8.9153524, 45.8559561],
          [8.915539, 45.8555529],
          [8.9159694, 45.8548155],
          [8.9162952, 45.8543661],
          [8.9164323, 45.8541513],
          [8.9164132, 45.8539019],
          [8.9163637, 45.8537666],
          [8.9163637, 45.8536552],
          [8.9164666, 45.8535491],
          [8.9168323, 45.8534284],
          [8.9169275, 45.8533196],
          [8.9169618, 45.8531074],
          [8.9170456, 45.8528554],
          [8.9171103, 45.8526856],
          [8.9170722, 45.8520648],
          [8.9169961, 45.851911],
          [8.9166647, 45.8515714],
          [8.9163348, 45.8512175],
          [8.9155129, 45.8506452],
          [8.9154558, 45.8504993],
          [8.9157224, 45.8501014],
          [8.9162747, 45.8497176],
          [8.9168041, 45.8494178],
          [8.9170822, 45.8491419],
          [8.9171459, 45.8490386],
          [8.9170925, 45.8487998],
          [8.9169707, 45.848569],
          [8.9168945, 45.8483356],
          [8.9168564, 45.8481896],
          [8.9170392, 45.847919],
          [8.9170392, 45.8478394],
          [8.9167079, 45.847667],
          [8.9163156, 45.8475556],
          [8.9155314, 45.847444],
          [8.915365, 45.8473491],
          [8.9152665, 45.8467718],
          [8.9149767, 45.8464004],
          [8.9132612, 45.8450762],
          [8.9124151, 45.844511],
          [8.9115168, 45.844297],
          [8.9108908, 45.8439498],
          [8.9101432, 45.8432191],
          [8.9100447, 45.8428961],
          [8.9089087, 45.8425973],
          [8.9087175, 45.8424197],
          [8.908687, 45.8417726],
          [8.908826, 45.8415586],
          [8.9091564, 45.8415142],
          [8.909707, 45.8415586],
          [8.9101069, 45.8414819],
          [8.9107618, 45.84149],
          [8.910982, 45.8413769],
          [8.9111791, 45.8411993],
          [8.9119093, 45.8406421],
          [8.9118687, 45.8405008],
          [8.911463, 45.8400647],
          [8.9113413, 45.8398265],
          [8.9112602, 45.8392572],
          [8.911521, 45.8388656],
          [8.911805, 45.8386718],
          [8.9120542, 45.838587],
          [8.9128887, 45.8387687],
          [8.9135552, 45.838692],
          [8.9156759, 45.8390431],
          [8.9161511, 45.8391521],
          [8.9164177, 45.8393257],
          [8.917629, 45.8394791],
          [8.9186548, 45.8398748],
          [8.9190663, 45.839891],
          [8.9196285, 45.8397739],
          [8.9201617, 45.8398748],
          [8.9206137, 45.8398869],
          [8.9220395, 45.8394711],
          [8.9227755, 45.8394428],
          [8.9235092, 45.8396946],
          [8.9237874, 45.8396663],
          [8.924083, 45.8394321],
          [8.9244017, 45.8393998],
          [8.9248132, 45.8395008],
          [8.9254586, 45.8395613],
          [8.9262004, 45.8394442],
          [8.9274754, 45.8394806],
          [8.9281419, 45.8393352],
          [8.9292782, 45.839262],
          [8.9296955, 45.8392902],
          [8.9299852, 45.8391691],
          [8.9301185, 45.838943],
          [8.9303793, 45.8386765],
          [8.9309142, 45.8383263],
          [8.9311634, 45.8383586],
          [8.9312735, 45.8381729],
          [8.9320212, 45.837866],
          [8.9323863, 45.8376641],
          [8.9325022, 45.8374219],
          [8.9323457, 45.8371554],
          [8.9322124, 45.8367597],
          [8.9318995, 45.8364205],
          [8.93143, 45.8353424],
          [8.9310939, 45.8350557],
          [8.9308447, 45.8350557],
          [8.9308447, 45.8351365],
          [8.9308447, 45.8352536],
          [8.9306882, 45.8352818],
          [8.9303636, 45.8351607],
          [8.9302709, 45.8346236],
          [8.9295298, 45.8338852],
          [8.9296051, 45.8333885],
          [8.9291415, 45.8330291],
          [8.928985, 45.8326334],
          [8.9291357, 45.8323507],
          [8.9290488, 45.8320156],
          [8.9288633, 45.8318096],
          [8.928956, 45.8312725],
          [8.9290552, 45.8308798],
          [8.9289103, 45.8301772],
          [8.9291885, 45.8296401],
          [8.9292523, 45.829317],
          [8.9292638, 45.8286139],
          [8.9292812, 45.8281455],
          [8.9292754, 45.8279516],
          [8.9291769, 45.8277739],
          [8.9290842, 45.827261],
          [8.9287133, 45.8268128],
          [8.9287364, 45.8263806],
          [8.928224, 45.8255711],
          [8.9278125, 45.825143],
          [8.9278994, 45.8247997],
          [8.9285659, 45.8245695],
          [8.9289593, 45.8241432],
          [8.9292375, 45.8235455],
          [8.9293012, 45.8230406],
          [8.9293186, 45.8219057],
          [8.9293302, 45.8214332],
          [8.9291447, 45.8211989],
          [8.9288608, 45.8210697],
          [8.9283218, 45.8210899],
          [8.9278118, 45.8210172],
          [8.9270351, 45.8207587],
          [8.926473, 45.8205527],
          [8.9262933, 45.8205527],
          [8.9261774, 45.8206335],
          [8.9258297, 45.8206213],
          [8.92412, 45.8202699],
          [8.9220857, 45.8200599],
          [8.9213787, 45.8198216],
          [8.9204745, 45.8197206],
          [8.9194198, 45.8196964],
          [8.9189329, 45.8192077],
          [8.9186837, 45.8191148],
          [8.9184925, 45.8192238],
          [8.9168581, 45.8192683],
          [8.9153397, 45.818727],
          [8.9151542, 45.8184685],
          [8.9154266, 45.818004],
          [8.9155251, 45.8178142],
          [8.9154034, 45.8175395],
          [8.9147485, 45.8173739],
          [8.9145747, 45.8171841],
          [8.9143544, 45.8165891],
          [8.9140704, 45.8163831],
          [8.9132243, 45.8162781],
          [8.9126563, 45.8160599],
          [8.9125114, 45.815858],
          [8.9124825, 45.8155752],
          [8.9106395, 45.8149653],
          [8.9102975, 45.8147795],
          [8.9099208, 45.8146381],
          [8.9090399, 45.8145856],
          [8.9081995, 45.8148077],
          [8.9071737, 45.8147027],
          [8.9067854, 45.8147391],
          [8.9060436, 45.8149168],
          [8.9057016, 45.8151592],
          [8.9054119, 45.8152803],
          [8.9047454, 45.8153167],
          [8.9039687, 45.8154621],
          [8.9029777, 45.8161044],
          [8.9025083, 45.8164598],
          [8.9019809, 45.816581],
          [8.9014709, 45.8165648],
          [8.9013376, 45.8164719],
          [8.9016099, 45.8161448],
          [8.901807, 45.8158862],
          [8.9015114, 45.8156802],
          [8.900561, 45.8152723],
          [8.9003755, 45.8149734],
          [8.899964, 45.8147471],
          [8.8996916, 45.8144563],
          [8.8993729, 45.8141978],
          [8.8989672, 45.8135434],
          [8.898179, 45.8130344],
          [8.8970546, 45.8127638],
          [8.8959361, 45.812792],
          [8.8952464, 45.8127638],
          [8.8944085, 45.812481],
          [8.8941941, 45.8121215],
          [8.8939565, 45.8119114],
          [8.8930756, 45.8116973],
          [8.8929133, 45.8113863],
          [8.8924033, 45.811051],
          [8.8916824, 45.8109318],
          [8.8912999, 45.8107541],
          [8.890929, 45.8106894],
          [8.8909174, 45.8104349],
          [8.8909058, 45.8102532],
          [8.8898394, 45.8101764],
          [8.8892715, 45.8104309],
          [8.8891034, 45.8103622],
          [8.8885239, 45.8099623],
          [8.8881355, 45.8099623],
          [8.8874806, 45.809522],
          [8.8867968, 45.8091947],
          [8.8862868, 45.8090897],
          [8.8855739, 45.8085847],
          [8.8844727, 45.8086494],
          [8.8836903, 45.8085807],
          [8.8835223, 45.8083019],
          [8.883389, 45.8079181],
          [8.8832904, 45.8078414],
          [8.8829021, 45.807906],
          [8.8826355, 45.8078899],
          [8.8824907, 45.8077606],
          [8.8823805, 45.8074172],
          [8.8820924, 45.8072521],
          [8.881791, 45.8072884],
          [8.8812346, 45.8074137],
          [8.8810492, 45.8073975],
          [8.8800291, 45.8068763],
          [8.8793337, 45.80644],
          [8.8792178, 45.8062421],
          [8.8791192, 45.8059148],
          [8.8788874, 45.8057734],
          [8.8784875, 45.8056967],
          [8.878134, 45.8054987],
          [8.8779717, 45.8053694],
          [8.877369, 45.8051553],
          [8.8774153, 45.8046664],
          [8.876859, 45.8043432],
          [8.876859, 45.8040927],
          [8.8761693, 45.8037857],
          [8.8756767, 45.8034221],
          [8.8745407, 45.803313],
          [8.8736946, 45.8030584],
          [8.8734396, 45.8028645],
          [8.8729875, 45.8027837],
          [8.8727209, 45.8023554],
          [8.8722689, 45.8019312],
          [8.8719694, 45.8012401],
          [8.8720911, 45.8006381],
          [8.8723925, 45.8003148]
        ]
      }
    },
    {
      "type": "Feature",
      "properties": {
        "NOME": "Gesone o Chiesone (Torrente)",
        "BACINO": "TICINO",
        "SOTTOBACIN": "Lago Maggiore (Verbano)",
        "NATURA": "naturale",
        "FONTE": "integrazione manuale 2026-10-09"
      },
      "geometry": {
        "type": "LineString",
        "coordinates": [
          [8.7684001, 45.9510699],
          [8.7656458, 45.9500892],
          [8.7641798, 45.9498807],
          [8.7629581, 45.9495872],
          [8.7623806, 45.9493324],
          [8.7611367, 45.9481895],
          [8.7605591, 45.9478652],
          [8.759604, 45.9477571],
          [8.7589154, 45.947564],
          [8.7574494, 45.9471547],
          [8.7569718, 45.9461431],
          [8.756672, 45.9460504],
          [8.755939, 45.946089],
          [8.7556457, 45.9461112],
          [8.7542542, 45.9457963],
          [8.7541155, 45.9457055],
          [8.7537442, 45.9456856],
          [8.7529444, 45.9453742],
          [8.7525146, 45.9452567],
          [8.752217, 45.9450932],
          [8.7520369, 45.9449705],
          [8.7515299, 45.9449016],
          [8.7513903, 45.9447943],
          [8.7512129, 45.9445117],
          [8.75111, 45.9443993],
          [8.750603, 45.9442563],
          [8.7500261, 45.9441796],
          [8.7496587, 45.9441643],
          [8.7491187, 45.9443227],
          [8.7485405, 45.9444139],
          [8.7479968, 45.9443526],
          [8.7476845, 45.9443679],
          [8.7474714, 45.9443833],
          [8.7473538, 45.9445161],
          [8.7473207, 45.9447052],
          [8.747104, 45.9447256],
          [8.7463985, 45.9447103],
          [8.7460804, 45.9447455],
          [8.7459261, 45.9447149],
          [8.7454988, 45.9445259],
          [8.7451645, 45.9442628],
          [8.7449256, 45.9440661],
          [8.7446771, 45.9439294],
          [8.7445596, 45.9436739],
          [8.7443979, 45.9436407],
          [8.7442252, 45.9436918],
          [8.7440783, 45.9438578],
          [8.7439533, 45.9438706],
          [8.7438652, 45.9437659],
          [8.7438213, 45.9436046],
          [8.7434319, 45.9434155],
          [8.7432776, 45.9433337],
          [8.7431086, 45.9431907],
          [8.7430094, 45.9429224],
          [8.7429836, 45.9427947],
          [8.7428771, 45.9427001],
          [8.7424436, 45.9426235],
          [8.7419329, 45.9426695],
          [8.7411429, 45.9429122],
          [8.7404568, 45.9430435],
          [8.7402621, 45.9430818],
          [8.7401004, 45.9430256],
          [8.7400674, 45.9429796],
          [8.7400527, 45.9426603],
          [8.7399424, 45.942484],
          [8.7395694, 45.9423649],
          [8.7393526, 45.9422269],
          [8.7392828, 45.9421452],
          [8.7391322, 45.9418769],
          [8.7389301, 45.9418156],
          [8.7379712, 45.9415422],
          [8.7378904, 45.9414732],
          [8.7372474, 45.9413685],
          [8.7370233, 45.9413762],
          [8.7368028, 45.9412101],
          [8.7365178, 45.9409506],
          [8.7363855, 45.9407028],
          [8.7360328, 45.940506],
          [8.7355919, 45.940506],
          [8.7351841, 45.9404421],
          [8.7346073, 45.9403502],
          [8.7342178, 45.9403655],
          [8.7336851, 45.9404064],
          [8.7335124, 45.9403732],
          [8.7331744, 45.9402454],
          [8.732807, 45.9401918],
          [8.7322078, 45.9401786],
          [8.731947, 45.940217],
          [8.7318074, 45.9402093],
          [8.7316604, 45.9401889],
          [8.7312563, 45.9399615],
          [8.7309661, 45.9398793],
          [8.7306979, 45.9399559],
          [8.7304334, 45.9399661],
          [8.7303085, 45.9399278],
          [8.7297498, 45.9397618],
          [8.729353, 45.9397082],
          [8.7290922, 45.9397107],
          [8.7288681, 45.9396826],
          [8.7286807, 45.9397107],
          [8.7284272, 45.9398512],
          [8.7282251, 45.9398896],
          [8.7278393, 45.9398078],
          [8.7276152, 45.9397056],
          [8.727327, 45.9395319],
          [8.7270735, 45.9392687],
          [8.7268714, 45.9391869],
          [8.7264889, 45.9390566],
          [8.7260884, 45.9389212],
          [8.7258753, 45.938934],
          [8.7254712, 45.9391793],
          [8.7249054, 45.9393811],
          [8.7244829, 45.9394833],
          [8.7239097, 45.9395114],
          [8.7232396, 45.9394979],
          [8.7218912, 45.9396206],
          [8.7211013, 45.9396793],
          [8.7204951, 45.9395056],
          [8.7201975, 45.939268],
          [8.7198767, 45.9388192],
          [8.719873, 45.9386148],
          [8.719568, 45.9383286],
          [8.7194101, 45.9380578],
          [8.7191014, 45.937764],
          [8.7189912, 45.9374599],
          [8.7185797, 45.9372402],
          [8.7184732, 45.937069],
          [8.7184622, 45.9366142],
          [8.7181793, 45.9361491],
          [8.7180984, 45.9358732],
          [8.7179588, 45.9356585],
          [8.7176943, 45.9352548],
          [8.7174996, 45.9346569],
          [8.7174481, 45.9341759],
          [8.7172681, 45.9338309],
          [8.7168713, 45.9335933],
          [8.7164488, 45.9333403],
          [8.7163643, 45.9332177]
        ]
      }
    },
    {
      "type": "Feature",
      "properties": {
        "NOME": "Boggione (Torrente)",
        "BACINO": "TICINO",
        "SOTTOBACIN": "Lago Maggiore (Verbano)",
        "NATURA": "naturale",
        "FONTE": "integrazione manuale 2026-10-09"
      },
      "geometry": {
        "type": "LineString",
        "coordinates": [
          [8.8207028, 45.9261007],
          [8.82184, 45.9250408],
          [8.8220432, 45.9248413],
          [8.8221986, 45.9247886],
          [8.8223579, 45.9247609],
          [8.8224735, 45.9246806],
          [8.8225213, 45.9245254],
          [8.8227285, 45.9243979],
          [8.8230193, 45.9243286],
          [8.8233221, 45.9243452],
          [8.8239646, 45.9240227],
          [8.8244268, 45.9239257],
          [8.8246619, 45.9240449],
          [8.8249647, 45.9242472],
          [8.8254508, 45.9243304],
          [8.8257735, 45.9242943],
          [8.8260603, 45.9242916],
          [8.8262487, 45.9244357],
          [8.8263404, 45.924602],
          [8.8267428, 45.9249068],
          [8.8268948, 45.9250149],
          [8.8274645, 45.9251535],
          [8.8276359, 45.925123],
          [8.8277634, 45.925123],
          [8.8279028, 45.9251895],
          [8.8288949, 45.9252976],
          [8.8292361, 45.925758],
          [8.8295548, 45.9264037],
          [8.8298703, 45.9268144],
          [8.8304082, 45.926989],
          [8.8314441, 45.9270222],
          [8.8321294, 45.9273188],
          [8.8324511, 45.927052],
          [8.8325706, 45.926725],
          [8.8328574, 45.9266557],
          [8.8335626, 45.9269356],
          [8.8336239, 45.9272636],
          [8.8340423, 45.9275795],
          [8.8340462, 45.9278788],
          [8.8343132, 45.9281864],
          [8.8345204, 45.9282224],
          [8.8346439, 45.9281864],
          [8.8355642, 45.9282196],
          [8.8367276, 45.9281947],
          [8.8370543, 45.9281836],
          [8.837644, 45.9280617],
          [8.8382297, 45.927912],
          [8.8385564, 45.927901],
          [8.8396046, 45.9279065],
          [8.8400828, 45.9277624],
          [8.8408824, 45.9274422],
          [8.84148, 45.9271568],
          [8.8421454, 45.92696],
          [8.8425956, 45.9267161],
          [8.8431246, 45.9265061],
          [8.843802, 45.9260932],
          [8.8442601, 45.9256553],
          [8.844551, 45.9254779],
          [8.8448339, 45.9254225],
          [8.8452243, 45.9251897],
          [8.8454156, 45.9249486],
          [8.8458897, 45.9247075],
          [8.8464873, 45.9245246],
          [8.8472157, 45.9245133],
          [8.8477695, 45.9243941],
          [8.8486341, 45.9240975],
          [8.8493672, 45.9239839],
          [8.8497138, 45.9239285],
          [8.8504947, 45.9237844]
        ]
      }
    },
    {
      "type": "Feature",
      "properties": {
        "NOME": "Serio (Torrente)",
        "BACINO": "ADDA",
        "SOTTOBACIN": "Lago di Como (Lario)",
        "NATURA": "naturale",
        "FONTE": "integrazione manuale 2026-10-09"
      },
      "geometry": {
        "type": "LineString",
        "coordinates": [
          [9.2602635, 46.0519599],
          [9.2590199, 46.0524289],
          [9.2582134, 46.0526291],
          [9.257898, 46.0526259],
          [9.2576322, 46.0527385],
          [9.257443, 46.0527604],
          [9.2569518, 46.0529386],
          [9.255884, 46.0529636],
          [9.2557669, 46.0528792],
          [9.2556227, 46.0527979],
          [9.2555191, 46.052776],
          [9.2549539, 46.052762],
          [9.254599, 46.0525875],
          [9.2544622, 46.0525721],
          [9.2542107, 46.0528697],
          [9.2539556, 46.0529749],
          [9.2533471, 46.0528492],
          [9.2530217, 46.0529724],
          [9.2526298, 46.0529826],
          [9.2522786, 46.0530339],
          [9.2516579, 46.052995],
          [9.2514619, 46.0530592],
          [9.2511846, 46.0530694],
          [9.2507941, 46.0532566],
          [9.250613, 46.0533977],
          [9.25038, 46.0534542],
          [9.2499438, 46.0536184],
          [9.2495196, 46.0538316],
          [9.2491314, 46.053983],
          [9.2486766, 46.0540497],
          [9.2487975, 46.0542113],
          [9.2488345, 46.0545217],
          [9.2489676, 46.0547629],
          [9.2492264, 46.0548168],
          [9.2495776, 46.0549913],
          [9.2496109, 46.0551709],
          [9.2495887, 46.0555044],
          [9.2495185, 46.0555814],
          [9.2488862, 46.0555096],
          [9.2483649, 46.055507],
          [9.247876, 46.055489],
          [9.2475215, 46.0555828],
          [9.2471312, 46.0559092],
          [9.246886, 46.0562843],
          [9.2464894, 46.056905],
          [9.2461191, 46.0571863],
          [9.2457538, 46.0572384],
          [9.2453384, 46.0571793],
          [9.2449331, 46.0569397],
          [9.2447279, 46.0568182],
          [9.2442325, 46.056964],
          [9.2437371, 46.0568876],
          [9.2432017, 46.0569467],
          [9.2429375, 46.0568698],
          [9.242387, 46.056974],
          [9.241818, 46.0574043],
          [9.2417078, 46.0576806],
          [9.2417728, 46.0582015],
          [9.2417778, 46.0585005],
          [9.2410222, 46.0591915],
          [9.2410567, 46.0594044],
          [9.2410117, 46.0596683],
          [9.2407114, 46.0599565],
          [9.2403311, 46.0602482],
          [9.2401087, 46.0606885],
          [9.2400086, 46.0608135],
          [9.2394081, 46.0609038],
          [9.2385905, 46.0613498],
          [9.2382402, 46.0617213],
          [9.2381752, 46.0620824],
          [9.2381802, 46.0623046],
          [9.2375396, 46.0632352],
          [9.2371969, 46.0636119],
          [9.2363411, 46.0638897],
          [9.2357456, 46.0643619],
          [9.2354754, 46.0646842],
          [9.2352302, 46.0651183],
          [9.2353191, 46.0653554],
          [9.2350889, 46.0655638],
          [9.2346135, 46.0656853],
          [9.233988, 46.0659006],
          [9.2334255, 46.0664662],
          [9.2332493, 46.0665517],
          [9.2330191, 46.0672391],
          [9.2330791, 46.0676731],
          [9.2332301, 46.0680841],
          [9.2332802, 46.0685111],
          [9.2333753, 46.0689312],
          [9.2335654, 46.069636],
          [9.2338056, 46.0701325],
          [9.234196, 46.0710594]
        ]
      }
    }
  ]
}
