{"type": "FeatureCollection", "name": "lombardia", "features": [{"type": "Feature", "properties": {"nome": "Lombardia", "fonte": "openpolis/geojson-italy, limits_IT_regions"}, "geometry": {"type": "MultiPolygon", "coordinates": [[[[8.583703013066982, 45.74753136437629], [8.556321508753731, 45.77410628928483], [8.552276679912072, 45.788104679429445], [8.554796630198954, 45.798136996302865], [8.55827692727624, 45.803563954062575], [8.56351118303618, 45.80724506156379], [8.581647123626977, 45.813658256147406], [8.592032707331173, 45.82444249257357], [8.59520279602321, 45.833613832490194], [8.594623917162467, 45.8447949529594], [8.59231155996824, 45.852446425651905], [8.57051363431215, 45.88950705725533], [8.5716262699418, 45.901336445559345], [8.594869029567143, 45.922547498586184], [8.68229920836706, 45.98688764124533], [8.719326193974654, 46.011145717120506], [8.726429962289972, 46.0179673025961], [8.728882343841155, 46.0234452983743], [8.72847439182185, 46.03022142859054], [8.720643146781445, 46.04104782910207], [8.715559309639232, 46.06226677364126], [8.71164213987361, 46.07230113858957], [8.705676714315251, 46.08139398773663], [8.705569146407981, 46.08512878550653], [8.707854364368906, 46.09081373551905], [8.724644032480947, 46.11016978970609], [8.742687489138218, 46.12214596400057], [8.756769894734358, 46.1037571859274], [8.760165019208136, 46.10169973374388], [8.783424599756508, 46.09394305872406], [8.800362261509457, 46.09529690971293], [8.806148712525587, 46.10091394366772], [8.815292692545658, 46.09725704934764], [8.832710164488573, 46.08345064287306], [8.84713668558183, 46.075847727217884], [8.852050546948755, 46.07552120198725], [8.854517056895904, 46.06162808833066], [8.844302524724577, 46.048537361991265], [8.834434691762212, 46.05134959026643], [8.830470310469705, 46.04580865394894], [8.835153770893355, 46.04372746071112], [8.832332896911252, 46.04054628677408], [8.82991456573864, 46.04158672098503], [8.82797535475679, 46.03331711484971], [8.819682448406981, 46.025271624246955], [8.805941408629572, 46.021608515856606], [8.792063843294248, 46.00498312617986], [8.785902335696498, 45.989017771290385], [8.790961956334915, 45.988591591081885], [8.792482205455803, 45.98937739774759], [8.792461574724468, 45.991582537962785], [8.79465442160126, 45.992090501995115], [8.821106614868693, 45.9875447099695], [8.831275517823972, 45.98798317944619], [8.83970484590504, 45.98335115977574], [8.849460613806423, 45.97304445219291], [8.867948762001493, 45.96072895354963], [8.878874495099305, 45.956024894279466], [8.894274706776091, 45.95846580993056], [8.898724052991394, 45.945158312841016], [8.892731689349157, 45.93509043559655], [8.893060988387214, 45.93133758869494], [8.898255662531941, 45.92533017758591], [8.913418870250519, 45.91746293104264], [8.924614585768024, 45.90585116203731], [8.925482162488185, 45.902737587299455], [8.922245066907283, 45.894941015016734], [8.924270694687953, 45.892057705455905], [8.928088104854433, 45.8912770887861], [8.93215622402922, 45.88467325002792], [8.934822948935599, 45.873514241057904], [8.934092556512352, 45.870057610078824], [8.941719931101815, 45.869895332743916], [8.938557933391998, 45.863408795797085], [8.930410389538025, 45.85851679985115], [8.915350763287115, 45.84350273423638], [8.912448677687655, 45.83027883473434], [8.918868402093999, 45.833613701068636], [8.92935738857224, 45.83331465899713], [8.934387444540027, 45.839086997353284], [8.949537460925336, 45.84347795173754], [8.955680713037541, 45.84249943583299], [8.961722047326708, 45.83899142445676], [8.962020244330951, 45.836039333824935], [8.970326211863588, 45.83247758659747], [8.985890271928632, 45.83787188241322], [8.995366318618148, 45.834344452611276], [8.996473406131557, 45.83159032835903], [8.993796585817153, 45.82388573839995], [9.004840648302224, 45.820231579789784], [9.01482825184213, 45.81850261176581], [9.0230025709474, 45.822281492930166], [9.029823367120107, 45.82074983578762], [9.033764062720017, 45.82260284229762], [9.031229824680015, 45.82519122689323], [9.035846533548266, 45.8411703333921], [9.0388220667748, 45.8421864185419], [9.03828253635689, 45.84371668878704], [9.040460604596074, 45.84656010662652], [9.049325081988734, 45.85224495457644], [9.048471021232947, 45.862505902624136], [9.05431553416956, 45.872286791184855], [9.058801788772739, 45.87528173667218], [9.066623643082162, 45.876240492924], [9.077794099449749, 45.885593929342306], [9.088757567692541, 45.900715677593055], [9.086582748531962, 45.90213041210162], [9.078017824777731, 45.89983246923762], [9.074964469381783, 45.90629682386315], [9.069860450795986, 45.91197033972375], [9.05427162131701, 45.920223171597904], [9.049604190186022, 45.92121533829121], [9.043032239807564, 45.926735259036775], [9.030368886100108, 45.92651431614571], [9.019395186335615, 45.92857778810335], [9.021848927582779, 45.93764972366641], [9.01293778653723, 45.94233128774807], [9.015106168529007, 45.950557352825236], [9.01406387792202, 45.96015636019822], [8.993985583806209, 45.966587808052076], [8.988770878737242, 45.97058354467975], [8.988073879208894, 45.972410555862105], [9.003006406171808, 45.979629383209776], [9.014031900201175, 45.988534356970504], [9.028287080903057, 45.9936618969618], [9.024404724289125, 46.00197004202453], [9.02228669491028, 46.01654250469033], [9.00909749535999, 46.02717301106029], [9.00783249465034, 46.0303591764009], [9.008880500164056, 46.03620025590411], [9.015771688612551, 46.04644175481692], [9.023813835284344, 46.052614500672654], [9.047772710985093, 46.061661188741056], [9.061578175362216, 46.06123158042325], [9.07251660572754, 46.062746184989614], [9.077872431387084, 46.0653167230874], [9.078764703109567, 46.07563479462419], [9.089434265307723, 46.08502311053606], [9.089842448929701, 46.088487839791256], [9.080142810308908, 46.105793302577645], [9.073375518805143, 46.11360993710447], [9.07163492547375, 46.11951509328173], [9.100599404632895, 46.12840336573028], [9.11244083712145, 46.13424236303759], [9.120816179825434, 46.13460921165249], [9.13360554285043, 46.15114868730134], [9.143319971422631, 46.15742795302274], [9.154390257607607, 46.16156255760734], [9.159568676286352, 46.170519461988384], [9.16827955949675, 46.172360973951896], [9.17757609335841, 46.17082590029487], [9.183511788244154, 46.171608531674785], [9.193528782490075, 46.17989902380543], [9.196210736197235, 46.18792240821742], [9.194160326224296, 46.18999592986569], [9.193889384032593, 46.194019384575995], [9.20003799704739, 46.2062937450348], [9.206973593722712, 46.21054737037107], [9.21478087392827, 46.21176597124514], [9.218224125206794, 46.21465742138687], [9.221609630498094, 46.225968331919674], [9.221300731985092, 46.22987039844264], [9.23484879292287, 46.2338393348212], [9.246130123348157, 46.23224961899784], [9.247615383141198, 46.23362724089413], [9.249827220615085, 46.240418008209254], [9.249370599726529, 46.25450383202156], [9.254601199730912, 46.26879309807912], [9.274008833620451, 46.29115785099093], [9.28454019072797, 46.29694599842218], [9.282133529733148, 46.30829172903542], [9.300050097599218, 46.326587671529154], [9.293903831142755, 46.33077951689244], [9.291810383165652, 46.33496077490297], [9.292424926413277, 46.33819911136296], [9.298906571732552, 46.34284872461806], [9.296961227349605, 46.35084556376302], [9.29231120198094, 46.35617637905936], [9.281473293943936, 46.358876477725104], [9.276678010440584, 46.36941783806845], [9.278151723182827, 46.378242963698995], [9.284340824233773, 46.386057487496146], [9.27875021786394, 46.3887621654707], [9.275710936567789, 46.394740819024264], [9.281163598266717, 46.40063130778738], [9.280808636728054, 46.41021677858312], [9.275048503018803, 46.41855543199908], [9.264700546911346, 46.42034377475064], [9.248696466972932, 46.431849710992196], [9.247466776009997, 46.43623516436837], [9.247724630642669, 46.44717810237715], [9.252018129239062, 46.449526616122775], [9.265606172006958, 46.45148477033845], [9.271688103748554, 46.454521349396856], [9.277816916746522, 46.46159826912396], [9.273784027569345, 46.470081072871416], [9.274931639452243, 46.48078777042031], [9.278868349637158, 46.49160465230093], [9.282373216159078, 46.49666276745444], [9.297096680566627, 46.49903734977126], [9.310911862066138, 46.50453082236302], [9.325590829377665, 46.505911891234845], [9.352113033445017, 46.5051853777698], [9.362046877738376, 46.509699105637004], [9.372343914676415, 46.50369036944215], [9.373707146800191, 46.49982966404875], [9.368383780368474, 46.49493319579693], [9.370837133198233, 46.489696559634794], [9.399964514622635, 46.46957894638415], [9.4102820192147, 46.46654557404702], [9.412823755811624, 46.46691441297009], [9.420851561279893, 46.47439978059662], [9.424119777073106, 46.479359945658025], [9.424811148628695, 46.48951785412606], [9.432829131282427, 46.49677740314138], [9.45157544219961, 46.50017422897309], [9.453435552269717, 46.50210177333518], [9.453289384664364, 46.504901186977804], [9.460883174387728, 46.50742670065499], [9.4592599728442, 46.48492546094273], [9.449458530561031, 46.48337147768221], [9.44978386458124, 46.47947339662189], [9.461525354003731, 46.480209571588716], [9.463514260230726, 46.470401029893374], [9.462471569279703, 46.46724640383044], [9.457371074939745, 46.46319012074612], [9.458490432988068, 46.44138866278631], [9.453709974457839, 46.42223855743357], [9.461173076569143, 46.41120664898935], [9.466864378455625, 46.39811606497737], [9.467740546298062, 46.38790685482668], [9.464376902860371, 46.38368170254991], [9.461597128101738, 46.37625022243951], [9.464232537923271, 46.374232568773216], [9.496042562388958, 46.36403745425801], [9.508300368176192, 46.34998455043799], [9.51148518586542, 46.33890963626276], [9.521188359583897, 46.325060117292715], [9.536639768115387, 46.31017048135967], [9.54937741465594, 46.30234316919611], [9.554226150400094, 46.30542476630802], [9.560823425133808, 46.305536603801244], [9.582895945533602, 46.294477830030466], [9.609863716886974, 46.29450809940672], [9.620925596938472, 46.28782467602637], [9.63339590443519, 46.28630730085825], [9.641934187127246, 46.28704265857694], [9.672176478962305, 46.301012111295634], [9.681131193473774, 46.298583165006924], [9.687179611636093, 46.29430803796264], [9.703981314042654, 46.290911874522735], [9.714497775083034, 46.29306963702717], [9.715065877345785, 46.29974399977874], [9.717813262366487, 46.305230163907204], [9.724170893421316, 46.30973500178809], [9.726128057045239, 46.319199390858316], [9.72207537598459, 46.32111051719595], [9.720654786544083, 46.327617334169034], [9.727085152391963, 46.3335344807028], [9.723255430910353, 46.34073158971016], [9.737279144343214, 46.35065876566461], [9.743631603771187, 46.35151760217416], [9.758229205880513, 46.34355143859865], [9.764696400482194, 46.33782050663449], [9.777477478380108, 46.334962392073685], [9.795409498762238, 46.34324485521615], [9.82166379125826, 46.351608959470255], [9.837697301564418, 46.36127992364798], [9.851765783290757, 46.36404689886842], [9.870544749694638, 46.3630099026547], [9.883041064525244, 46.37099586304192], [9.90636061327559, 46.38088410986384], [9.925361046522045, 46.36600841822978], [9.93093225927676, 46.3680466552659], [9.929825126339217, 46.371660051444415], [9.933529986775907, 46.37453671780993], [9.952940690055446, 46.37937145228775], [9.958587534490011, 46.37811828143769], [9.955413777148605, 46.37373046907733], [9.965882433987858, 46.36281581691642], [9.983512988486114, 46.35369282765452], [9.996352418068826, 46.350935722461045], [9.994041180942782, 46.34142505439877], [9.986249136338172, 46.334733682327965], [9.980849552996656, 46.323597866549335], [9.99703015599353, 46.31399907405089], [10.000863763153903, 46.30271575421036], [9.997118372605334, 46.298833546555514], [9.993276301984091, 46.29747200434888], [9.992561796013563, 46.293140282502186], [9.996702050994518, 46.28448227362143], [9.99827054201483, 46.28292960908426], [10.03010747012072, 46.277121253428376], [10.050576358017489, 46.26762907202098], [10.055834418000366, 46.263692654246285], [10.060315101031836, 46.251105271443656], [10.059869782387697, 46.24751842549877], [10.047772563482404, 46.23216800972327], [10.047448020320799, 46.22874199473128], [10.05868009619293, 46.22478651896644], [10.06760918185366, 46.217827477770875], [10.070837209663871, 46.21714029415182], [10.083065014427792, 46.2264480792876], [10.094518250142329, 46.22855300246512], [10.124009775269858, 46.22421681647658], [10.132647118901103, 46.22553566073947], [10.145676306676517, 46.23038275945725], [10.150941741701711, 46.23969885319515], [10.17453053503014, 46.25466882516215], [10.176338356070792, 46.25790822402463], [10.173008765182285, 46.26543942573914], [10.165549096952002, 46.271041673318166], [10.161430430092848, 46.27634858652809], [10.161835296574107, 46.28015143990754], [10.14979025245897, 46.29444806771858], [10.138247072533245, 46.3006745015279], [10.138927863281708, 46.30469968654193], [10.117139621984567, 46.31374355534636], [10.106144374856719, 46.33142715629541], [10.106166386416724, 46.34085426554608], [10.108307857127285, 46.349765837616495], [10.111322723667607, 46.35299450378592], [10.126245216884659, 46.360102309583716], [10.12885786228245, 46.363289480852195], [10.126070392965039, 46.37124575870799], [10.127722006991846, 46.377619322413445], [10.142122667657874, 46.386093648985096], [10.15793723609526, 46.38556111141719], [10.16165788105692, 46.38749872139423], [10.163941051273639, 46.390895410790485], [10.162407480408518, 46.40446462579485], [10.165647384429667, 46.4069695612545], [10.160591873055202, 46.4158137135314], [10.152960117187481, 46.414270964051525], [10.148319160970349, 46.41687808127182], [10.146084723922305, 46.42396526860587], [10.143052907950146, 46.42768548287756], [10.135398840659679, 46.42880570789507], [10.130673283299265, 46.431867417767826], [10.101252070854741, 46.42287136257354], [10.079592796708111, 46.421106978242605], [10.07977173548975, 46.42423716415591], [10.069612559831086, 46.427113544545605], [10.065192519697744, 46.42603883982622], [10.060497540886104, 46.42822440281798], [10.055203120730631, 46.44050397972036], [10.043114923391196, 46.44212681247062], [10.040523310989737, 46.444130348307596], [10.039811145364848, 46.44570276527238], [10.043916891918172, 46.45484499705765], [10.05193869862578, 46.460279261195666], [10.053361385213893, 46.463146045132845], [10.05090271693876, 46.47208727247554], [10.04774590103879, 46.474564139546125], [10.044384078942892, 46.483360498847446], [10.046805237809918, 46.5105800570117], [10.0516548867257, 46.51403637261098], [10.054042482864187, 46.52092604090403], [10.052528894618085, 46.530353482610124], [10.043648970232107, 46.53784594225812], [10.04924240369259, 46.543909946284835], [10.059656724469786, 46.54560482057773], [10.066447955352576, 46.55008646559561], [10.068892167505924, 46.553699432816984], [10.083139092794681, 46.56405880433203], [10.085139234168071, 46.567603630668174], [10.07915463608684, 46.57310493916043], [10.079373925716194, 46.57486676209522], [10.092083681781544, 46.57675298908349], [10.101094932956787, 46.58277726620066], [10.101248268308954, 46.58869742315149], [10.098094571711965, 46.59667425154691], [10.102154387282761, 46.61077329287544], [10.1188576872792, 46.60617892124846], [10.130171718848693, 46.60559974092659], [10.140480146359755, 46.61081608245852], [10.16461016602158, 46.61604460486168], [10.190628388986537, 46.62608557543819], [10.209602425306723, 46.620059417798515], [10.219176874217137, 46.62175763058533], [10.222964119671815, 46.62829126238158], [10.240328290923536, 46.63507435903146], [10.241108338302869, 46.62729943000414], [10.25179212438516, 46.616068726790296], [10.256410772645923, 46.608490070635455], [10.241601800735603, 46.59145835645242], [10.244002845240823, 46.578401021392615], [10.246619378117238, 46.57525872039009], [10.253522275462283, 46.57182646698194], [10.25986182863207, 46.57509563638122], [10.271052793393055, 46.576465726455744], [10.282302965254804, 46.571534429495955], [10.289168280699503, 46.56773147153127], [10.294297770441554, 46.56010944075879], [10.29574885664021, 46.550400522003706], [10.311291089090233, 46.546866557488485], [10.325112818096335, 46.55146801353337], [10.33822617930253, 46.54301326070707], [10.342169974465081, 46.54374100486523], [10.347972214198416, 46.548406530479014], [10.35220697226076, 46.55557416177675], [10.36629216616086, 46.55488480086444], [10.397555543824836, 46.54394158321197], [10.412551093549693, 46.5503270296089], [10.419340142715068, 46.55105295168147], [10.433522009268493, 46.54122855762841], [10.436564326452169, 46.53740163115379], [10.453137592676283, 46.53055108422159], [10.457940462003688, 46.51058963997697], [10.472978151262671, 46.5005985401758], [10.47612158666748, 46.49552622960549], [10.48232126561809, 46.49417036690998], [10.496995003573184, 46.497364039690844], [10.542878117689787, 46.492134478122374], [10.555013091916399, 46.489032320594795], [10.562273632562029, 46.481780833746924], [10.576129487143456, 46.4742667839019], [10.600492387199486, 46.46866429089285], [10.62183400234232, 46.44796363770563], [10.616622713577963, 46.44363657438981], [10.619218474519434, 46.43687806556347], [10.616462598988136, 46.429967967919445], [10.617945697116753, 46.41739653714396], [10.619225938274763, 46.41439905485659], [10.628225596267702, 46.40767575476889], [10.630984331495778, 46.402286979355964], [10.610809149436927, 46.38726351127879], [10.605985142405313, 46.3792292670345], [10.598055279720734, 46.37738586228819], [10.56704359933294, 46.37792851385598], [10.541980575191571, 46.36089903876591], [10.543934448823268, 46.35886588537653], [10.54101646075035, 46.35523390259499], [10.534540273835587, 46.35417093174209], [10.53282562310486, 46.35637842590913], [10.52847454802398, 46.35680515714393], [10.519241273394357, 46.35531341431163], [10.515714830514044, 46.343217878670906], [10.521012938051149, 46.34354261415436], [10.533419733311357, 46.33940064053218], [10.563034440731984, 46.3272996950715], [10.564859945411689, 46.31301449787809], [10.578053791006946, 46.30242462765908], [10.579572499444174, 46.29882843410151], [10.560479181244922, 46.284520563258496], [10.562032047961937, 46.281639503479035], [10.576295929391097, 46.27266825305263], [10.585054170682982, 46.248696729252096], [10.584895180389493, 46.24481078203451], [10.580746937711313, 46.23962557705489], [10.574588899637256, 46.23699630356106], [10.568930970610058, 46.22926101593398], [10.570446972326113, 46.22206899022056], [10.549357254671747, 46.20462791366576], [10.54137877154291, 46.188625529361424], [10.554552364119603, 46.18026991268091], [10.565394916902203, 46.166838648456846], [10.558276647406657, 46.160625055892154], [10.554321253204854, 46.148775849049834], [10.546579643581818, 46.14431957791171], [10.545924229298686, 46.14182127711531], [10.549604369147511, 46.138295976090866], [10.550644830159394, 46.12601022514165], [10.547892033914431, 46.11564880666692], [10.541683786360252, 46.10402843682288], [10.535743272718939, 46.097731176371354], [10.522368110611305, 46.08869819697114], [10.518092480515936, 46.08280224525214], [10.509191437406512, 46.075232306232785], [10.489406254103239, 46.065056438712446], [10.483040034806855, 46.05724077654225], [10.482087891481163, 46.049738483296984], [10.485948295436614, 46.03005459074472], [10.484399616221964, 46.02399594597858], [10.48149987680243, 46.02110707459038], [10.470815724083545, 46.021082650432604], [10.45829212948825, 46.01042516759698], [10.45300035158515, 45.98888857238244], [10.452167914566344, 45.980348773305124], [10.453407896568327, 45.97655253507667], [10.476200172395476, 45.97048557114117], [10.486604668520043, 45.97115832980362], [10.489416997920976, 45.96377401148351], [10.483261814771453, 45.950527715890644], [10.484706148839697, 45.945114741720516], [10.486150458654738, 45.94282899853975], [10.491435424235261, 45.94195295124936], [10.491405488165432, 45.933008726154824], [10.508568122550688, 45.92356617275588], [10.510845562724985, 45.91558073452826], [10.506162819160197, 45.90327293778198], [10.501072716580705, 45.900035409696756], [10.495935598054876, 45.89974091628117], [10.490042391426249, 45.88461082506547], [10.49110595474364, 45.8822826359692], [10.503702059283155, 45.87356778624721], [10.501634242229882, 45.86094798626526], [10.506555034489809, 45.842410610824025], [10.50259172464832, 45.83512052044508], [10.502827602254078, 45.82973396960363], [10.50805687758852, 45.82390339893823], [10.51847051086532, 45.82639648528467], [10.52837304834729, 45.82657466027019], [10.543627836874391, 45.817647819014695], [10.543350441765707, 45.815722253917976], [10.537284627179707, 45.810754849174174], [10.529653207277711, 45.80945269820221], [10.526051458460682, 45.805613874826875], [10.531096122690816, 45.80444215120092], [10.533671455443525, 45.8006480045999], [10.532978035747288, 45.787961792565426], [10.537797622569611, 45.78563441411053], [10.545423851039647, 45.784659203671126], [10.564265414356468, 45.784564180599794], [10.581148942740322, 45.789516194417594], [10.582389956701125, 45.79429547477891], [10.589707221955626, 45.798123029096736], [10.597677619760754, 45.79973524732045], [10.601743351626512, 45.80311605346186], [10.611431089757959, 45.805162140931], [10.635147502135615, 45.806671748365765], [10.641409401011211, 45.80188521312028], [10.645025683089365, 45.80368126193161], [10.650744467676775, 45.81215277584596], [10.6560655540197, 45.83232392349103], [10.677074763561256, 45.83094347062179], [10.695621772501044, 45.83987336038549], [10.711012997834601, 45.83606262945394], [10.717294822691601, 45.83690869525213], [10.725849049391572, 45.84212782843527], [10.735553304937282, 45.84272294848867], [10.748523600573707, 45.83790343217219], [10.756350437366498, 45.83002690384183], [10.76306494723209, 45.839960982548064], [10.770552058827843, 45.84262687752557], [10.777204778688635, 45.84302818772616], [10.783813688926758, 45.83645860015154], [10.791214673849492, 45.83345736510794], [10.79568343601851, 45.83576566662901], [10.803582894345947, 45.83441493339776], [10.825385177982533, 45.83774488054019], [10.840150472097324, 45.83275599762336], [10.832468511338181, 45.815570898658514], [10.814781320821238, 45.804044362602276], [10.80959101201359, 45.79835725460389], [10.77198570117388, 45.75077933180104], [10.705606595392293, 45.6764125473078], [10.631043073923806, 45.609508673381576], [10.628467659341535, 45.60205660926904], [10.64300770649911, 45.45756799568727], [10.644706489111302, 45.45359591494682], [10.647615868636478, 45.451400773948734], [10.647737085220971, 45.448536642430696], [10.644298404899363, 45.444887681279624], [10.630554684726254, 45.44293249307003], [10.623645985976266, 45.44361601020423], [10.627251691050837, 45.438271973067906], [10.640276169885725, 45.44349536720768], [10.646764498444973, 45.4410436729331], [10.647411970775641, 45.42375198010684], [10.643865135048506, 45.41781726996976], [10.654626059751227, 45.41582268398783], [10.66523409088153, 45.42771707206204], [10.712515366972326, 45.41855004992232], [10.716484394172532, 45.414979971986526], [10.719367473221007, 45.40596234110618], [10.71758911223094, 45.4008328731795], [10.71922315643904, 45.40030317143853], [10.716841881962349, 45.395567879694575], [10.707873192337825, 45.385818955267546], [10.698267213260076, 45.37899520161088], [10.699546363672532, 45.37596656731033], [10.70638734618859, 45.36999847811606], [10.714626309011932, 45.36793125185512], [10.704469281065574, 45.359407110221426], [10.691839355435857, 45.35404004627024], [10.685544412922736, 45.35368461620993], [10.686904802767392, 45.34264978273129], [10.7057744086731, 45.339389981114216], [10.715029519166658, 45.33386815070485], [10.713175833777107, 45.32368874162801], [10.706382650460423, 45.31630130427102], [10.716381729254511, 45.31661054556548], [10.721960599186696, 45.31883090465975], [10.730482260601987, 45.315857626835665], [10.733099255552153, 45.30544831537174], [10.72887448970256, 45.296132888916645], [10.728348037911491, 45.291302133185084], [10.737415845951581, 45.28724484925183], [10.782815303410473, 45.31542157934705], [10.811969230279901, 45.29666722040427], [10.816315773265066, 45.293393632710554], [10.816873912023889, 45.289307094869486], [10.827022511491414, 45.28387932759901], [10.832346506971541, 45.27756143284971], [10.840011189797265, 45.272894477685135], [10.8408392485042, 45.2653844428384], [10.84660810424607, 45.256568843798476], [10.876279594602662, 45.25274549516509], [10.879168775568877, 45.24722506586797], [10.88903911213108, 45.24857329972661], [10.896826348143843, 45.24706019194818], [10.899658321493959, 45.24567080885719], [10.902087411785677, 45.23748404212035], [10.936790161222216, 45.23293856638018], [10.930806883249657, 45.2255429736026], [10.93145531890578, 45.21761064555521], [10.934982212681538, 45.214202342363976], [10.944848863762136, 45.21116549510766], [10.946957227149413, 45.20573668191864], [10.96603245948601, 45.205608064773095], [10.985397232545592, 45.19870918096916], [10.990676637975449, 45.19566473246492], [10.996778036037961, 45.18738473749192], [10.993225085443528, 45.18406221402802], [10.998797238900599, 45.164701382322335], [10.997730661198577, 45.157851813454485], [10.994982289666783, 45.15347106534925], [10.992688979775577, 45.153008542945756], [10.993731462102502, 45.1515305504421], [11.008608996019557, 45.15025268651575], [11.01024462812042, 45.14865754529489], [11.021260543250847, 45.15656451257338], [11.028365545738662, 45.15923800594397], [11.031819992995054, 45.15226331745416], [11.035572335675452, 45.150106540390354], [11.046633917035923, 45.15314189957909], [11.049459199916313, 45.15068777764296], [11.050475020948829, 45.149571337836136], [11.042285360925112, 45.14394809033456], [11.04384765437478, 45.13427930662959], [11.028931481737866, 45.12787467676738], [11.028696851451395, 45.123045405993985], [11.038991766203669, 45.11400433112891], [11.07294249043036, 45.09874859437303], [11.087591460921498, 45.098255099705035], [11.097572677648044, 45.09524710435451], [11.09412483082287, 45.09970492556845], [11.094893032282375, 45.10606984632508], [11.102143824073053, 45.11313793663815], [11.105585505159842, 45.10820458807835], [11.117065544250146, 45.10447105622881], [11.127404591230142, 45.10322716954803], [11.132485015491936, 45.10605198161307], [11.134820654993696, 45.109858008292946], [11.137675732670422, 45.12333411606483], [11.146437334309603, 45.126068264903125], [11.155603040509599, 45.12094460890584], [11.183171128352171, 45.112688181965225], [11.187559252024815, 45.10994933877188], [11.203434135031253, 45.11166728692409], [11.205477521902996, 45.10949142085064], [11.177508735685496, 45.09734496336883], [11.17681638886993, 45.08849150759636], [11.187453920858587, 45.08653281874759], [11.188368223019745, 45.08408482590704], [11.175486548931943, 45.074888224525594], [11.17362843741422, 45.07078279073247], [11.175279829114737, 45.060066315882914], [11.181128603256147, 45.06123407039187], [11.197421619692678, 45.06049738955265], [11.212191052535276, 45.057484492510845], [11.235031405169686, 45.04457212277956], [11.24044088807831, 45.042953767583555], [11.247597708183045, 45.04446040487292], [11.259480321584025, 45.05536101872728], [11.262712485267771, 45.056809289813366], [11.26590254213196, 45.05622390844674], [11.268699362619829, 45.05340480363083], [11.270455474427324, 45.04451213614877], [11.263053340238454, 45.03293876807103], [11.271278343773321, 45.02712680853345], [11.274037872610133, 45.01825858629185], [11.308740333842383, 45.012359340976815], [11.31321572350748, 45.00973021691534], [11.327201568746615, 44.99565528354851], [11.335812042943111, 44.99039765498016], [11.394559168439455, 44.971617642757934], [11.409027757325637, 44.96953081201696], [11.416139594844863, 44.96676993940019], [11.42623181785539, 44.959831435014735], [11.42767276191697, 44.9552278269964], [11.426742046083852, 44.950083466728024], [11.426178123714154, 44.952070898472186], [11.405733531378337, 44.9486887133124], [11.390236620657657, 44.95581145884605], [11.37671594078724, 44.958082816666305], [11.362763830721544, 44.955465852828084], [11.360044491033783, 44.95090334028715], [11.357155454240198, 44.950080507927886], [11.322796388049413, 44.96116411655121], [11.30865683286604, 44.96046062266616], [11.285372897893724, 44.95676128968645], [11.27225723428784, 44.93832271740273], [11.26175026189419, 44.94543114374], [11.246205691807146, 44.95143858598219], [11.243441852410479, 44.94791114857347], [11.231796383525866, 44.94484531180745], [11.213124417180216, 44.943485003545945], [11.20207912333205, 44.93948680911677], [11.15854419693173, 44.93809020376814], [11.152435622084427, 44.93324454055775], [11.142860288436902, 44.93739454762258], [11.124333312133754, 44.95136980569214], [11.118021570942643, 44.954466717441804], [11.072128018169451, 44.96171682639127], [11.059537707203836, 44.948887790709904], [11.049034763984583, 44.95122616269575], [11.030297216665364, 44.95136618828422], [10.997472404767382, 44.95508698215801], [10.988812454755907, 44.95136735433783], [10.96715673059472, 44.93480651730079], [10.950594927568739, 44.93332884803657], [10.951373110003894, 44.927873704757424], [10.941373627186426, 44.92191399460451], [10.917052685096394, 44.924127476306495], [10.890308766598965, 44.91243772859654], [10.88788583415674, 44.91427136838281], [10.888791026442247, 44.91653908824927], [10.89799102534435, 44.92180554014462], [10.876633184254704, 44.917058909349066], [10.873983599872377, 44.921834769151076], [10.871277887680284, 44.92086641019113], [10.865969121274363, 44.92360888338474], [10.86699342104237, 44.928241673319945], [10.865391527058206, 44.92961813642026], [10.847694300559443, 44.92569596251644], [10.840141360702255, 44.93194007375264], [10.81921173315559, 44.93679540405841], [10.812549994684604, 44.937756373353636], [10.80877522524444, 44.9360735595217], [10.776826869181358, 44.9419772092006], [10.766548673535276, 44.94571046512501], [10.744566559717319, 44.94892911554937], [10.742795697837948, 44.95391969148455], [10.74815550012184, 44.96269971431644], [10.742433954441594, 44.97213473574592], [10.741053025174224, 44.980908723734814], [10.731588859604356, 44.99140398242953], [10.727396780532395, 44.99202573963132], [10.712161511022027, 44.98525635681582], [10.710772560454512, 44.97308580963346], [10.70261619928005, 44.96531474128102], [10.694741002145014, 44.96194015833], [10.691557456189456, 44.96233840590663], [10.688040209694249, 44.96559522519243], [10.693645780898263, 44.96950452132553], [10.695961287552338, 44.974466198729075], [10.68668004065286, 44.98659267956037], [10.678910041149047, 44.97639251764635], [10.66470377018788, 44.96890840880123], [10.650330078666032, 44.94807660720539], [10.639372540607564, 44.939383333910676], [10.630918936652456, 44.93015272487514], [10.627881457494778, 44.92420182970507], [10.6251804331523, 44.925624926866334], [10.620210599839115, 44.92462883429697], [10.598825415926266, 44.914744577798736], [10.582361214332002, 44.91263793242324], [10.569838561011673, 44.90834130359166], [10.531733372371784, 44.91306733458308], [10.519853175245686, 44.91272658417744], [10.51496925197712, 44.914411695292095], [10.501140145506545, 44.92383038276818], [10.460942774321865, 44.93822916980161], [10.451628621729945, 44.94054716262756], [10.441656340715786, 44.940836464986305], [10.435668369655696, 44.94313646749744], [10.431837984143156, 44.94707278314828], [10.416767797084157, 44.977650005325934], [10.405673984357806, 44.98449428046796], [10.397237022211824, 44.98441778978104], [10.389797834374653, 44.982325628029585], [10.367968021871578, 44.96735805320593], [10.35851601525813, 44.965535482921], [10.348861563758268, 44.96857556077576], [10.33076965438589, 44.980796379694205], [10.308900787022015, 44.987377474877306], [10.310005841501706, 44.99300897811521], [10.304687581551391, 44.99903809404028], [10.299856348362766, 45.000281446051], [10.27393413651919, 44.99852118914661], [10.265114484940394, 45.004777999990786], [10.260030514332424, 45.01423062579291], [10.255857175712784, 45.01780532480674], [10.211067550304056, 45.03403182115535], [10.193959022160142, 45.02815527243949], [10.187295907123195, 45.02821575093445], [10.177165250400575, 45.031889866954224], [10.174749160063257, 45.03424691141421], [10.174248190178863, 45.038274341351254], [10.168750162183379, 45.04319253672361], [10.157721351440088, 45.044079037354045], [10.146733983804463, 45.034981070600104], [10.106190803722413, 45.02213035147072], [10.092877607327747, 45.02376202643931], [10.089101359241566, 45.027192269778375], [10.084133161635451, 45.03292875940319], [10.082307534936264, 45.0466055798664], [10.058954161390453, 45.0417025167923], [10.050223560763337, 45.041279032716595], [10.052857572833233, 45.05058963609776], [10.046946126112127, 45.05928568876703], [10.043509717025238, 45.063079868917384], [10.029668230025809, 45.06680624369474], [10.021649626660048, 45.07589052282995], [10.023538373552213, 45.08134516733065], [10.029501666631196, 45.08724170547916], [10.028531935025345, 45.09622512895552], [10.024260892981472, 45.10083459887903], [10.010885586876007, 45.10956118565581], [9.992727088452183, 45.12975822961339], [9.985465587149035, 45.13343076171431], [9.976201216251225, 45.13381641832751], [9.97119102528033, 45.132346843362015], [9.960007167300452, 45.12140537688776], [9.935812933293771, 45.10440397776972], [9.918487334110756, 45.09960279881443], [9.915208559028986, 45.10042126935197], [9.913458439800097, 45.10464807443932], [9.914891873873225, 45.110037595142686], [9.921566373882282, 45.1140256781771], [9.927074175766219, 45.12598933525512], [9.92625535757678, 45.13196407906793], [9.92260601566331, 45.135936339432384], [9.913690927861147, 45.13913159522875], [9.908077774565658, 45.13566416214034], [9.881033422371056, 45.127001886842436], [9.875421023793173, 45.12170706649883], [9.877825932461546, 45.11353310011188], [9.894207944400778, 45.101820803414135], [9.900628073534913, 45.095442155793016], [9.901020719364238, 45.088084662516984], [9.896772758322948, 45.080538642113176], [9.889667533150764, 45.076264378343296], [9.880650037096078, 45.0747949782716], [9.87539734801088, 45.07774291964584], [9.869215531631626, 45.0873229745739], [9.861519796376637, 45.0935564710509], [9.846354999930332, 45.09675745313083], [9.838357325237196, 45.09564620862593], [9.83304011313285, 45.09181438231604], [9.831388459163739, 45.08395891034992], [9.835160927538979, 45.06904251139725], [9.833758463359574, 45.06167690206205], [9.827112888672286, 45.05358204826483], [9.8237586715906, 45.052590618183366], [9.816559302572799, 45.05445917974249], [9.816841173656641, 45.070678442839395], [9.813262369429584, 45.078103307269814], [9.788193886589413, 45.08447227003202], [9.778962214974449, 45.08958407091466], [9.76665637498456, 45.10726567236622], [9.757535705254744, 45.112538529226995], [9.748570153084316, 45.11327428456349], [9.74506916765858, 45.11093874174539], [9.745053601629126, 45.105833397694234], [9.753101098271213, 45.086599442326815], [9.749593768116336, 45.07783683833777], [9.74691831426584, 45.075315899997], [9.73783271246184, 45.07319651266246], [9.727681630666329, 45.06213547722376], [9.714995005975439, 45.05823683751664], [9.68367965407142, 45.07033791822157], [9.676892967312034, 45.07760824499195], [9.65345698350582, 45.08136194902038], [9.643383819821004, 45.08045595856354], [9.634935518918496, 45.08397790872297], [9.631827784471565, 45.08676767408492], [9.63149918077691, 45.09038818054364], [9.637168356202785, 45.10080768426207], [9.637915043053844, 45.113072823397985], [9.64091683691821, 45.11662066789798], [9.6383072182911, 45.12430470362939], [9.629351604110386, 45.132032823869594], [9.61896547230392, 45.133547868558175], [9.615096284998165, 45.126160417134564], [9.611964022108491, 45.111495496717005], [9.60188197969331, 45.10414069184723], [9.587446998623195, 45.09962498894568], [9.585951287831364, 45.104988699301735], [9.57709329879547, 45.1051508155622], [9.568583253854992, 45.107339289973986], [9.56079756752428, 45.12249721660026], [9.554711383540154, 45.129413208683694], [9.548661304684034, 45.13265151991728], [9.53721570468024, 45.12605375427937], [9.535754359047916, 45.1220008514178], [9.537442663283153, 45.11487708974785], [9.551147544888563, 45.094157390362916], [9.551000006123886, 45.09079146484971], [9.543679614588136, 45.083859210414786], [9.533417590786241, 45.07890264907739], [9.52932351381951, 45.078404104153954], [9.525477827510356, 45.0801367023955], [9.519628562340468, 45.08899411412278], [9.50890747700464, 45.09919631844835], [9.499286070171113, 45.103919678524896], [9.489155214437066, 45.102109196274405], [9.471405521811587, 45.095495556921534], [9.439006420205793, 45.093446279125565], [9.439142234287177, 45.08986324740959], [9.435601635182671, 45.08182925638397], [9.427457157743854, 45.08184640978848], [9.421908449014296, 45.08397794980382], [9.410777783305715, 45.082754624553544], [9.412558291427343, 45.078908209930376], [9.40635928821294, 45.07321560092442], [9.392360001656568, 45.066241926151235], [9.370820124791253, 45.04815383213946], [9.375588013948127, 45.0404078897389], [9.369447808954114, 45.02372634899218], [9.375605660530628, 45.01991804942658], [9.371192329238532, 45.01484043847381], [9.365870983735583, 45.00304264193521], [9.361366765369942, 45.00009007201855], [9.353208235042198, 45.00101666600847], [9.347463360784218, 44.99741104442901], [9.343979225177772, 44.9929161710887], [9.335462226545298, 44.9747397106698], [9.335321838596025, 44.96808757836442], [9.337548453147974, 44.965380524231485], [9.324591638837006, 44.956047103604035], [9.32154281240194, 44.943966205538295], [9.314532283072898, 44.93682015396609], [9.305445519537127, 44.93454912646312], [9.286826304649036, 44.934129363848456], [9.285027724332439, 44.93176639700836], [9.292966795842966, 44.920457848874406], [9.284064325165945, 44.90349993575671], [9.277409533167564, 44.89560893450794], [9.282266074852716, 44.89577412723332], [9.29282631634136, 44.89031940266765], [9.29011350921031, 44.88220651345404], [9.308692705929362, 44.87590132392671], [9.322387489979963, 44.87974337460533], [9.326465820009622, 44.87288131468396], [9.342381879846869, 44.8672714589423], [9.350325173156012, 44.83702724293202], [9.359226780752957, 44.82393750375728], [9.363098293962604, 44.8224038895129], [9.357650910933568, 44.81456221430972], [9.345771198871077, 44.807532070183235], [9.32837600885214, 44.79950845371913], [9.321528090775315, 44.800032058469505], [9.317871887543516, 44.78621492319925], [9.30715761005545, 44.78004172975527], [9.2869749960292, 44.77249641928369], [9.284722091563191, 44.767091744576554], [9.285521514313755, 44.76006801580585], [9.288199705843043, 44.757441591114656], [9.308778932833345, 44.74747632208555], [9.321199422679314, 44.7434180715101], [9.332580785900287, 44.73504034629492], [9.325910525278351, 44.72309559194279], [9.317228624979274, 44.71949209973464], [9.308480723548053, 44.70563453388732], [9.309435194905317, 44.702346097782296], [9.315429349066665, 44.697405420995615], [9.32615011425174, 44.693810387418374], [9.324637465427283, 44.69001562396267], [9.305599967641491, 44.688290291992374], [9.298507087502351, 44.68101424487876], [9.287639977421927, 44.680221247272726], [9.285805994051959, 44.684456956916975], [9.278606171219247, 44.68560003882242], [9.265979745125046, 44.68397370795425], [9.263239631892874, 44.68077521981638], [9.259475786698255, 44.67994659701223], [9.255639324646062, 44.68574456170171], [9.254330592859182, 44.692129371824805], [9.235083700134084, 44.71635987612469], [9.235912941514034, 44.712775230556765], [9.232259071635042, 44.703325651305455], [9.24213247814376, 44.687456688346344], [9.23708781121188, 44.6851176469475], [9.223793546386998, 44.68340702076063], [9.20031989688178, 44.68640483125319], [9.20635895147008, 44.69914360308751], [9.207228580992487, 44.70552997046028], [9.202830258165609, 44.72205709957051], [9.210981806897971, 44.73445648874234], [9.214041348685809, 44.7454601384304], [9.21355045182904, 44.752348232196844], [9.194158322151702, 44.756838956153025], [9.171726254871182, 44.771683172484124], [9.170337424021666, 44.776356228062745], [9.173835313107725, 44.78385100286961], [9.173504949063215, 44.796148871224574], [9.16528586910965, 44.80029455503314], [9.159688036999073, 44.806258614384994], [9.15972078993908, 44.81325522078947], [9.160977027727977, 44.814738377893796], [9.156035687053468, 44.81535778478572], [9.146725901883283, 44.80903964568566], [9.126115926132998, 44.80618502143347], [9.115799176494413, 44.80730368268437], [9.106953306848713, 44.81053508856801], [9.095145245186979, 44.81902561599335], [9.079895500567076, 44.81420307208751], [9.072257457813905, 44.81747740481579], [9.07501247366192, 44.82295646302956], [9.072906921417784, 44.828034605618356], [9.070417695181458, 44.83068322853077], [9.064111185785267, 44.83018982095314], [9.064492666093273, 44.8331035766147], [9.049004337911642, 44.84985941076541], [9.06758094455576, 44.86009448585956], [9.070044886348306, 44.865197164971086], [9.061517350391222, 44.87602270046426], [9.055223924784473, 44.888924586717934], [9.048668418446026, 44.88771309192928], [9.030363602997731, 44.88849926609566], [9.018397843088195, 44.900802820837406], [9.006173287660888, 44.90373869842156], [9.0013474319328, 44.90819485161198], [8.998306927284426, 44.91788100118739], [8.977152389734144, 44.94009519744305], [8.969597257652756, 44.94351345173427], [8.971843917724517, 44.949924047701366], [8.976830135385992, 44.9529050961297], [8.9783251460511, 44.95683901185687], [8.976496393425696, 44.963005196410016], [8.978124650076161, 44.96720624454793], [8.962821049607761, 44.983215339443525], [8.960623892580095, 44.98728495196682], [8.951954199566371, 44.98822090226129], [8.944497654099768, 44.98713701197874], [8.943612184761752, 44.984499314871705], [8.925603710276171, 44.98215733293428], [8.92536245153504, 44.984749618339485], [8.916860566701384, 44.98811944304017], [8.90127373458691, 45.00776281772726], [8.90437384745915, 45.02957235971722], [8.902227051905514, 45.0378883543446], [8.895080702934685, 45.04043372105425], [8.900157040206762, 45.04362077332405], [8.891577690276126, 45.05127325229629], [8.88572093777477, 45.05061325813479], [8.881058582131013, 45.05408033888139], [8.887399040279874, 45.059795399897986], [8.880932277094313, 45.06026445192307], [8.863648765359327, 45.04943397791424], [8.860508628549567, 45.05123957689877], [8.840521568060936, 45.04746868824131], [8.837990998481198, 45.04423343194667], [8.830911455495817, 45.04270187645549], [8.825360430082004, 45.044007832162755], [8.821780472812135, 45.03965437505213], [8.809919626185994, 45.03428288331494], [8.796212608462541, 45.03581290928202], [8.794370460323783, 45.03262298034137], [8.799838888179035, 45.02951801138457], [8.80231264184424, 45.02607463403858], [8.79833696831229, 45.02112265972012], [8.791469375146065, 45.019898091876925], [8.777698663387294, 45.02373397989923], [8.776385373638403, 45.01871735779574], [8.778677076427712, 45.01324867197434], [8.775524225349614, 45.00817448091411], [8.771748257720938, 45.00678070087653], [8.767648552062596, 45.00704250283167], [8.767024036579183, 45.01027410208103], [8.761729428474776, 45.012098338408244], [8.747880439104232, 45.009146724784614], [8.748210776269223, 45.01324827242345], [8.754110718704217, 45.01532707002875], [8.750539820290102, 45.0207252216549], [8.743813605542151, 45.02367192787757], [8.728015609817284, 45.022848203607985], [8.720575176707278, 45.0267963411044], [8.714345579624142, 45.03654646978742], [8.710058933933873, 45.03829123069407], [8.70499647874365, 45.03705173114873], [8.70100523847524, 45.03182255482592], [8.700813690408724, 45.02651773180055], [8.69504399987158, 45.02322577775781], [8.681690499242402, 45.028841803419304], [8.672932226347216, 45.027919839348925], [8.666841796028203, 45.024459822956445], [8.665623867857043, 45.02026932894896], [8.659067916544712, 45.01797499926078], [8.65195976618251, 45.023688819956185], [8.657026799171499, 45.028431286109296], [8.652589942738148, 45.03431405659121], [8.644246614966109, 45.035638638070324], [8.634737784102526, 45.04096242446094], [8.640551276240531, 45.04449383450948], [8.645247817962117, 45.057007471441004], [8.64214040587383, 45.06050395429705], [8.644690211611454, 45.06093505288991], [8.637344142118389, 45.06612241111758], [8.64598777227679, 45.07533272511907], [8.639687033730201, 45.077536314615884], [8.636561860197165, 45.08378739517868], [8.630321065599382, 45.0882006919763], [8.622405394733434, 45.090460936505565], [8.623370576894803, 45.09834991960967], [8.613253543323292, 45.10256493889245], [8.609095213036582, 45.106889419204435], [8.609218013520213, 45.11704369502136], [8.61313568225358, 45.12427434172885], [8.611804331751367, 45.127528423755585], [8.594542577356291, 45.13082831672382], [8.590113125466363, 45.1330217235698], [8.586469807412046, 45.146715877060466], [8.582047782559073, 45.150954201237475], [8.554383872905142, 45.1573595219946], [8.55240532858298, 45.159277921656994], [8.55500169600341, 45.164310884487584], [8.547782022773296, 45.16815136675051], [8.546436277886546, 45.17097452371164], [8.542966039467933, 45.17300285373479], [8.543691130977928, 45.1803331023428], [8.545540951125728, 45.18294305053051], [8.562406036529348, 45.19448376082993], [8.581210350308382, 45.20221014607754], [8.57174130812744, 45.205924105415086], [8.556876196735198, 45.20517428145637], [8.550604851537543, 45.20115309145099], [8.552296767176063, 45.196424921600276], [8.53093576357209, 45.19334391650384], [8.524514528940525, 45.19833425288357], [8.527604246618285, 45.200729473705294], [8.532236774455729, 45.1992812862213], [8.548048582277087, 45.204124765390056], [8.544623816716765, 45.208963718035136], [8.536593455988125, 45.21497072209407], [8.529343379047573, 45.21714647268716], [8.523244930373098, 45.22160390577355], [8.523101190780501, 45.22508689197331], [8.527079825184263, 45.229154098963704], [8.539172429674919, 45.23013968428699], [8.543651594862991, 45.234001221818595], [8.5417220805187, 45.23636093407543], [8.530529206006712, 45.23739572680536], [8.529098182591538, 45.23951413513676], [8.544141059036976, 45.23981826408819], [8.548728596726964, 45.23795508091768], [8.555359700010873, 45.23880931022723], [8.556180957679366, 45.241395854543235], [8.554049956921856, 45.24336796211391], [8.546214581673794, 45.241806843053354], [8.537795424073227, 45.24310525734715], [8.525818231786621, 45.24645864691261], [8.522495388793214, 45.24923975488274], [8.522768349342286, 45.25462609562893], [8.530905801601124, 45.25368765643889], [8.536013911427954, 45.24758753249008], [8.54338394411936, 45.2532798782751], [8.541179792903089, 45.25634878449873], [8.533049132503134, 45.25814298627877], [8.536222486001297, 45.26270248983707], [8.53272263688676, 45.26533384616973], [8.536108006167328, 45.27221573732769], [8.535106136651772, 45.27780153846329], [8.522411550643344, 45.27913554499903], [8.523254512791269, 45.27436831317199], [8.514077597627749, 45.274320594579216], [8.513070845918609, 45.280331565675574], [8.518268503255412, 45.28679854013892], [8.51199744559937, 45.291020667782774], [8.504414847441316, 45.29056495592115], [8.498337479071374, 45.29222644681244], [8.507205910972544, 45.30710136001897], [8.513543557425823, 45.31327821116127], [8.514730075702504, 45.31167250746326], [8.519754643661878, 45.3118017550801], [8.533972078193953, 45.31850367187389], [8.537899575851522, 45.3172472850573], [8.532968144239275, 45.33220405989569], [8.526376341011437, 45.34220014532437], [8.542019253603371, 45.34780395850159], [8.550850706943262, 45.35614717806065], [8.553088675039223, 45.36147025647802], [8.55720531825611, 45.35330075065958], [8.571030587750483, 45.348631637725006], [8.577851051943282, 45.34777104322991], [8.58413299030172, 45.35113351278141], [8.590752866541694, 45.351922537881585], [8.599059732711103, 45.34857450724026], [8.613481295142883, 45.354490321929454], [8.61507997648111, 45.35261924750454], [8.625185052710957, 45.35178576543221], [8.632329438627293, 45.34637515820338], [8.631666440318702, 45.33838136379007], [8.655711406839238, 45.325680669916245], [8.655092927609815, 45.322984205062994], [8.65932641650169, 45.314724666055255], [8.65886886853008, 45.303669601557516], [8.663126233515726, 45.299658674709875], [8.664887909281145, 45.2928317907399], [8.688928592119838, 45.29403392008961], [8.690646036481866, 45.29252641437867], [8.716121910442197, 45.30288129574132], [8.716671543744374, 45.30807645440404], [8.723377342167506, 45.32203608552191], [8.726360425849732, 45.33229066033194], [8.72476786559703, 45.33570881034743], [8.742122362478089, 45.33205927201274], [8.742908166465648, 45.33693886803329], [8.755581792328469, 45.34448244253867], [8.760364123599794, 45.35193071713837], [8.758268013090778, 45.354578308678676], [8.760662219901114, 45.35569647213532], [8.75609006881794, 45.35721102708877], [8.746395902971395, 45.355191626771024], [8.73302212276357, 45.36490949199585], [8.721093894295757, 45.3703988521324], [8.719076898867819, 45.37807955586722], [8.723927144744572, 45.37790343056915], [8.728081050727093, 45.37543842031399], [8.760886587670452, 45.376483900170655], [8.764025075914253, 45.37730048767039], [8.76239810513568, 45.38211478166255], [8.764953379371311, 45.38759081447248], [8.769052963114312, 45.38760826389452], [8.79338107081931, 45.378959684463304], [8.80154253332178, 45.37918133729837], [8.811899900274867, 45.383267083030226], [8.811228461042326, 45.38910797999438], [8.823290712587808, 45.392223696893375], [8.833168910802446, 45.391374376041604], [8.842896694817354, 45.39383795019038], [8.842192405071344, 45.39894687876498], [8.824534900929528, 45.41949779798637], [8.824374207967846, 45.43011146216837], [8.825832956545868, 45.43394843533668], [8.821277344052433, 45.435372605251416], [8.809975575216342, 45.43255192008956], [8.808101661212463, 45.43333465065987], [8.808018057414692, 45.43576517260776], [8.810019142486045, 45.437379414795004], [8.807823427651384, 45.44770012159808], [8.799969016837379, 45.45582237793277], [8.788375016589034, 45.46250869010152], [8.791184107413331, 45.47020669342533], [8.790580798669417, 45.48020909159947], [8.78748750259123, 45.48623267281735], [8.773494261311592, 45.48470399581167], [8.760257542554175, 45.49686833027901], [8.738534766614801, 45.49846378508233], [8.727892429796954, 45.50239940547554], [8.722844172972351, 45.506023704576414], [8.713069742140197, 45.5201314826638], [8.712424825677383, 45.523577305865516], [8.714413633622808, 45.5278757113922], [8.719404390490679, 45.53105489370677], [8.709454828904025, 45.54334482511955], [8.707755165541744, 45.547516941735516], [8.706164839540952, 45.552787511153454], [8.706963242946827, 45.55937376547772], [8.705527935800227, 45.56915398754248], [8.693345721608322, 45.57778087228061], [8.696037450316101, 45.58242363559448], [8.704440635316795, 45.58831417577909], [8.703148489936027, 45.60005712045241], [8.700101417280825, 45.60403660176746], [8.699266848879786, 45.60171204368951], [8.691855640925695, 45.604104657339384], [8.688780675757659, 45.60822769139862], [8.693863835951227, 45.60964551657187], [8.68213363903857, 45.62034258058436], [8.677956969912923, 45.621501005181834], [8.666212895166131, 45.62074718335511], [8.663088254934301, 45.62203413569719], [8.66593801821698, 45.63032329465431], [8.65893960356973, 45.63774685206097], [8.660364385463449, 45.64186410298908], [8.665657555502124, 45.64287867308751], [8.670875531767264, 45.64148969758618], [8.674515184757324, 45.63563155722969], [8.678645211445067, 45.63362705733361], [8.685056290388014, 45.63432898897804], [8.688184928792648, 45.636992848198986], [8.688017794414783, 45.641672831421545], [8.684665632974562, 45.646884079335756], [8.669835079657258, 45.661423574490875], [8.672373814962942, 45.66631834094744], [8.681976422454811, 45.66944639654846], [8.681201677398757, 45.67640175386152], [8.675103603945923, 45.67763563113365], [8.667451511054157, 45.67495385775613], [8.657433604283197, 45.67445174274465], [8.640902425283231, 45.67653416066983], [8.641440896158961, 45.68724646675214], [8.646142014934464, 45.692675334962374], [8.654358403194776, 45.70788246232912], [8.654672705071397, 45.711087676987546], [8.651790358328148, 45.715991164662235], [8.642868174555108, 45.723155185460755], [8.60214538466512, 45.72630604732172], [8.59598320442668, 45.728894494352836], [8.591859715675207, 45.73226860639736], [8.583703013066982, 45.74753136437629]], [[9.28967513089433, 44.70121856093497], [9.29092801459523, 44.700910474921045], [9.301732854621815, 44.703086813884546], [9.292822491005134, 44.705890595317435], [9.290944462672492, 44.70515833230624], [9.28967513089433, 44.70121856093497]], [[9.299185166521463, 44.69246177355832], [9.304121622132385, 44.69369804113134], [9.304205377751444, 44.696550902670616], [9.29893950360583, 44.69372277424686], [9.299185166521463, 44.69246177355832]]], [[[8.973819829240323, 45.983546067081555], [8.977254454622276, 45.98152172031534], [8.977827691315145, 45.96855687698032], [8.976088243181369, 45.96248129829098], [8.970269087745796, 45.9615528972152], [8.957879033220154, 45.96473512964322], [8.96684903772868, 45.98403027136242], [8.973819829240323, 45.983546067081555]]], [[[8.705427662316254, 45.02448328104466], [8.706122792174702, 45.01290497705859], [8.704043151476407, 45.01752628866866], [8.705427662316254, 45.02448328104466]]]]}}]}